"Region","Clinic Name","Phone","Address"
"서울특별시", "연세문상영의원", "02-2057-3050", "서울특별시 강남구 강남대로 240 양재SK허브프리모 4층 411,412 (도곡동)"
"서울특별시", "강남푸른안과의원", "02-6956-8882", "서울특별시 강남구 강남대로 372 FINE TOWER 7층 (역삼동)"
"서울특별시", "에스원이비인후과의원", "02-516-8871", "서울특별시 강남구 강남대로 598 보림빌딩 6층 (논현동)"
"서울특별시", "강남우리집의원", "2291-8885", "서울특별시 강남구 개포로 229 정원빌딩 2층 4호 (개포동)"
"서울특별시", "밸런스본의원", "02-6952-7565", "서울특별시 강남구 논현로 503 송촌빌딩 3층 (역삼동)"
"서울특별시", "365열린가정의학과의원", "02-565-7119", "서울특별시 강남구 도곡로 405 삼환 아르누보2 204호 (대치동)"
"서울특별시", "케이플러스청담의원", "02-514-7566", "서울특별시 강남구 도산대로 333 K+ 메디칼타워 2,3,13층 (신사동)"
"서울특별시", "주앤의원", "02-518-3458", "서울특별시 강남구 선릉로155길 3 2,3,4층 (신사동)"
"서울특별시", "서울이내과의원", "02-536-3967", "서울특별시 강남구 압구정로 160 제성빌딩 3층 301-A호 (신사동)"
"서울특별시", "동선소아과의원", "02-459-4500", "서울특별시 강남구 양재대로55길 6 수서1단지아파트 상가 312-1호 (일원동)"
"서울특별시", "연세라파의원", "02-931-1051", "서울특별시 강남구 역삼로 310 한솔필리아 2층 19호, 20호 (역삼동)"
"서울특별시", "서울연세의원", "02-418-7731", "서울특별시 강남구 영동대로 210 쌍용대치종합상가 2층 201A호 (대치동, 쌍용아파트)"
"서울특별시", "연세재활의학과의원", "02-3411-8275", "서울특별시 강남구 일원로 115 삼성생명 일원역 빌딩 B동 303호 (일원동)"
"서울특별시", "이관우내과의원", "02-3411-0588", "서울특별시 강남구 일원로 35 남경빌딩 2층 (일원동)"
"서울특별시", "정소아과의원", "02-3013-9739", "서울특별시 강동구 상암로 11-0 (암사동)"
"서울특별시", "위드연의원", "02-441-7935", "서울특별시 강동구 고덕로 266 고덕역 대명벨리온 4층 405,406,407호 (명일동)"
"서울특별시", "박노준산부인과의원", "02-483-3600", "서울특별시 강동구 구천면로 238 (천호동)"
"서울특별시", "명성연세내과의원", "02-441-9905", "서울특별시 강동구 구천면로 428 308호 (명일동, 센트로빌)"
"서울특별시", "삼성에프엠의원", "02-3426-7570", "서울특별시 강동구 양재대로 1637 2층 1호 (명일동)"
"서울특별시", "수마취통증의학과의원", "02-442-7582", "서울특별시 강동구 올림픽로 774 (암사동)"
"서울특별시", "안원식서울마취통증의학과의원", "02-766-3087", "서울특별시 강동구 올림픽로 783 3층 (암사동)"
"서울특별시", "연세이내과의원", "02-475-2935", "서울특별시 강동구 진황도로61길 7 202호 (둔촌동, 둔촌동현대아파트)"
"서울특별시", "다사랑산부인과의원", "02-484-0868", "서울특별시 강동구 천호대로 1124 (성내동)"
"서울특별시", "노민관가정의학과의원", "02-489-2410", "서울특별시 강동구 천호대로 1210 3층 (둔촌동)"
"서울특별시", "오수혁내과의원", "02-478-2489", "서울특별시 강동구 천호대로 997 (천호동, 신라빌딩)"
"서울특별시", "송림외과의원", "02-907-7799", "서울특별시 강북구 노해로 99-1 (수유동)"
"서울특별시", "서울조이내과의원", "02-980-1012", "서울특별시 강북구 도봉로 174 2층 (미아동)"
"서울특별시", "서울탑의원", "02-946-0016", "서울특별시 강북구 도봉로 253 4층 (수유동)"
"서울특별시", "미래마취통증의학과의원", "02-981-6523", "서울특별시 강북구 도봉로 253 5층 (수유동)"
"서울특별시", "사랑샘터정신건강의학과의원", "02-929-0241", "서울특별시 강북구 도봉로 30 9층 903호 (미아동, 에코피아빌딩)"
"서울특별시", "서울에이치내과의원", "02-905-7559", "서울특별시 강북구 도봉로 323 용신빌딩 4층 401호 (수유동)"
"서울특별시", "유로탑비뇨기과의원", "02-999-1640", "서울특별시 강북구 도봉로 325 9층 (수유동)"
"서울특별시", "자애내과외과의원", "02-905-2694", "서울특별시 강북구 도봉로 393 (수유동, 자애의원)"
"서울특별시", "서울희내과의원", "02-983-7582", "서울특별시 강북구 도봉로 63 5층 (미아동)"
"서울특별시", "서울삼양의원", "02-988-3650", "서울특별시 강북구 삼양로 191 (미아동)"
"서울특별시", "수연합의원", "02-987-9875", "서울특별시 강북구 삼양로 308 진주빌딩 2,3층 (수유동)"
"서울특별시", "서울봄연합의원", "02-907-0304", "서울특별시 강북구 삼양로 579 화성빌딩 3,4층 (우이동)"
"서울특별시", "서울의원", "02-997-6600", "서울특별시 강북구 삼양로 613 2층 (우이동)"
"서울특별시", "강북삼성의원", "02-980-8767", "서울특별시 강북구 삼양로77가길 9 3층 (수유동)"
"서울특별시", "성모365의원", "02-988-7382", "서울특별시 강북구 솔샘로 254 삼양아케이트 206호 (미아동)"
"서울특별시", "건강의집 의원", "02-982-3391", "서울특별시 강북구 오현로31길 85-6 1층 (번동)"
"서울특별시", "한사랑의원", "02-945-5050", "서울특별시 강북구 인수봉로 142 (수유동, 수유동 근생빌딩)"
"서울특별시", "동서통합의원", "02-907-0114", "서울특별시 강북구 한천로 1058 2층 (수유동)"
"서울특별시", "서울류내과의원", "02-6953-9080", "서울특별시 강북구 한천로 1120 영우빌딩 2층 (수유동)"
"서울특별시", "북부성모의원", "02-999-7171", "서울특별시 강북구 한천로 1152 (수유동)"
"서울특별시", "서울강민신경과의원", "02-2663-7536", "서울특별시 강서구 강서로 323 2층 (내발산동)"
"서울특별시", "바로척척의원", "02-2668-5856", "서울특별시 강서구 공항대로 287 2층 (등촌동, 화인빌딩)"
"서울특별시", "굿모닝의원", "02-3663-3005", "서울특별시 강서구 공항대로 437 2층 (등촌동)"
"서울특별시", "김은석가정의학과의원", "02-2664-8223", "서울특별시 강서구 공항대로3가길 23 (공항동)"
"서울특별시", "정내과의원", "02-2606-7577", "서울특별시 강서구 까치산로4길 3 2층 (화곡동, 화성빌딩)"
"서울특별시", "목동제이의원", "02-2644-6450", "서울특별시 강서구 등촌로 29 기업은행화곡동지점 3층 일부호 (화곡동)"
"서울특별시", "햇살가득한가정의학과의원", "02-2062-1600", "서울특별시 강서구 등촌로 59-1 2층 (화곡동)"
"서울특별시", "오율의원(마곡본점)", "02-6956-7585", "서울특별시 강서구 마곡서로 157 스프링파크타워 2층 (마곡동)"
"서울특별시", "강서성모내과의원", "02-3662-7585", "서울특별시 강서구 양천로 658 302호 (염창동, 양화진빌딩)"
"서울특별시", "연세가족의원", "02-3665-1977", "서울특별시 강서구 양천로59길 46 106호 (가양동, 대일빌딩)"
"서울특별시", "이종현내과의원", "02-2698-0770", "서울특별시 강서구 화곡로 210 (화곡동)"
"서울특별시", "서울W내과의원", "02-871-5600", "서울특별시 관악구 관악로 165 (봉천동, 양지빌딩)"
"서울특별시", "연세가정의원", "02-883-7575", "서울특별시 관악구 관악로40길 47 1동 409호 (봉천동, 현대상가)"
"서울특별시", "서울가정의학과의원", "02-888-8858", "서울특별시 관악구 구암길 106 205호 (봉천동, 관악드림타운분산상가)"
"서울특별시", "난곡연세가정의원", "02-839-1535", "서울특별시 관악구 난곡로 202 4층 (신림동)"
"서울특별시", "대한결핵협회 서울특별시지부 복십자의원", "02-793-4891", "서울특별시 관악구 남부순환로 1533 1,2층 (신림동)"
"서울특별시", "하버드재활의학과의원", "02-3474-8275", "서울특별시 관악구 남현길 7 (남현동)"
"서울특별시", "아름드리가정의원", "02-858-2828", "서울특별시 관악구 봉천로 281 2층 (봉천동)"
"서울특별시", "관악정다운의료복지사회적협동조합정다운우리의원", "02-871-2497", "서울특별시 관악구 신림로 206 태영빌딩 2층 (신림동)"
"서울특별시", "연세의원", "02-837-6333", "서울특별시 관악구 신원로 23 2층 (신림동)"
"서울특별시", "메디서울이비인후과의원", "02-882-9997", "서울특별시 관악구 양녕로 46 메카플러스 304호 (봉천동)"
"서울특별시", "조내과의원", "02-876-6662", "서울특별시 관악구 은천로 110 4층 (봉천동)"
"서울특별시", "봉천연세가정의원", "02-876-7582", "서울특별시 관악구 은천로 35 (봉천동)"
"서울특별시", "지킴내과의원", "02-2201-2210", "서울특별시 광진구 광나루로 614 (구의동, 만택빌딩 3층)"
"서울특별시", "더불어내과의원", "02-469-7577", "서울특별시 광진구 긴고랑로 41 2층 (중곡동)"
"서울특별시", "앤의원", "02-444-7726", "서울특별시 광진구 능동로 296 5층,6층 (능동)"
"서울특별시", "늘푸른연세의원", "02-461-2598", "서울특별시 광진구 뚝섬로27길 65 2층 (자양동)"
"서울특별시", "신혜성의원", "02-3409-5511", "서울특별시 광진구 면목로 147 3층 (중곡동, 삼영빌딩)"
"서울특별시", "삼성신내과의원", "02-469-0114", "서울특별시 광진구 아차산로 208 상록빌딩 2층 (자양동)"
"서울특별시", "한마음의원", "02-455-2264", "서울특별시 광진구 자양로 126 (구의동)"
"서울특별시", "아이코이비인후과의원", "02-453-1920", "서울특별시 광진구 자양로 287 3층 (구의동)"
"서울특별시", "김재선피부과의원", "02-455-0080", "서울특별시 광진구 자양로 48 (자양동)"
"서울특별시", "연세.모던피부과의원", "02-455-0063", "서울특별시 광진구 천호대로 635 2.3층 (중곡동)"
"서울특별시", "더케이내과의원", "02-6734-0511", "서울특별시 구로구 가마산로 232 1층 (구로동, 스페스큐브)"
"서울특별시", "연세정형외과의원", "02-865-4001", "서울특별시 구로구 가마산로 271 301호 (구로동)"
"서울특별시", "고려가정의학과의원", "02-2616-7272", "서울특별시 구로구 개봉로 23 고려크리닉센터 3층 (개봉동)"
"서울특별시", "굿모닝의원", "02-2066-7588", "서울특별시 구로구 개봉로3길 76 (개봉동)"
"서울특별시", "민전산부인과의원", "02-2685-3388", "서울특별시 구로구 경인로 322 1,2,4,5층 (개봉동)"
"서울특별시", "정가정의학과의원", "02-2689-9823", "서울특별시 구로구 경인로 382 (개봉동, 한마을아파트)"
"서울특별시", "다올항외과의원", "02-2672-8275", "서울특별시 구로구 경인로 572 스타팰리스 4층 (구로동)"
"서울특별시", "한길의원", "02-2617-8887", "서울특별시 구로구 고척로21나길 18 2층 (개봉동)"
"서울특별시", "고려튼튼외과의원", "02-857-8511", "서울특별시 구로구 구로동로 153 이스턴프라자 3~5층 (구로동)"
"서울특별시", "호산의원", "02-862-7067", "서울특별시 구로구 구로동로 215-1 2층 (구로동)"
"서울특별시", "정내과의원", "02-866-0356", "서울특별시 구로구 구로중앙로 10 정내과 (구로동)"
"서울특별시", "가리봉의원", "02-851-1666", "서울특별시 구로구 남부순환로105길 42 가리봉의원 (가리봉동)"
"서울특별시", "바른정형외과의원", "02-2060-0075", "서울특별시 구로구 오류로8길 57 대성빌딩 2층 (오류동)"
"서울특별시", "최태진내과의원", "02-2681-7582", "서울특별시 구로구 천왕로 32 천왕에이스프라자 302호 (천왕동)"
"서울특별시", "서울푸른숲내과의원", "02-6451-7000", "서울특별시 구로구 항동로3길 6 가온 프라자 5,6,7층 (항동)"
"서울특별시", "서울메디피아의원", "02-856-2119", "서울특별시 금천구 가산디지털1로 149 201,202호 (가산동, 이노플렉스2차)"
"서울특별시", "김홍열내과의원", "805-6124", "서울특별시 금천구 금하로 651 2,3층 (시흥동)"
"서울특별시", "김재연내과의원", "802-7503", "서울특별시 금천구 금하로 763 201호 (시흥동, 벽산2차 중심상가)"
"서울특별시", "에스본의원", "02-838-5888", "서울특별시 금천구 남부순환로 1372 현경빌딩 6,7,8층 (독산동)"
"서울특별시", "명이비인후과의원", "857-7412", "서울특별시 금천구 남부순환로 1384 영남빌딩 2층 (독산동)"
"서울특별시", "유진목내과의원", "02-893-5211", "서울특별시 금천구 시흥대로 272 (시흥동)"
"서울특별시", "금천하나의원", "851-0075", "서울특별시 금천구 시흥대로 403 5,6층 (독산동, 셈프레팜)"
"서울특별시", "금천주내과의원", "02-803-0222", "서울특별시 금천구 시흥대로73길 67 엠메디컬타워 3층 303~307호 (시흥동)"
"서울특별시", "(재)천주교서울대교구유지재단 전진상의원", "02-802-9311", "서울특별시 금천구 탑골로3가길 22 전진상사회복지관 (시흥동)"
"서울특별시", "열린이비인후과의원", "02-3296-5075", "서울특별시 노원구 공릉로 187 301호 (공릉동, 건설빌딩)"
"서울특별시", "예원내과의원", "02-943-7715", "서울특별시 노원구 광운로 45 (월계동)"
"서울특별시", "기쁜가정의학과의원", "02-971-4913", "서울특별시 노원구 노원로 257 4층 (하계동)"
"서울특별시", "장대국내과의원", "02-934-9454", "서울특별시 노원구 노해로 452 노빌리안골드 (상계동)"
"서울특별시", "서울맥마취통증의학과의원", "02-934-1119", "서울특별시 노원구 노해로 480 조광빌딩 6층 (상계동)"
"서울특별시", "연세내과의원", "02-952-6671", "서울특별시 노원구 노해로 492 501호,502호 (상계동)"
"서울특별시", "이종익내과의원", "931-7007", "서울특별시 노원구 노해로 494 206호 (상계동, 고려빌딩)"
"서울특별시", "참사랑의원", "02-933-7575", "서울특별시 노원구 누원로 22 수락리버시티4단지 크로바프라자203호 (상계동)"
"서울특별시", "노원센트럴의원", "02-2242-8602", "서울특별시 노원구 덕릉로126길 2 201,202호 (상계동)"
"서울특별시", "김지호산부인과의원", "939-0980", "서울특별시 노원구 덕릉로83길 10 2/3층 (중계동)"
"서울특별시", "퀸스메디소아청소년과의원", "02-948-7599", "서울특별시 노원구 동일로 1059 (공릉동)"
"서울특별시", "박상호의원", "02-496-9361", "서울특별시 노원구 동일로 1280 201호 (중계동, 시영2단지상가)"
"서울특별시", "노충희비뇨기과의원", "02-933-6133", "서울특별시 노원구 동일로 1341 3층 1,2호 (상계동, 장우빌딩)"
"서울특별시", "천내과의원", "02-3296-3311", "서울특별시 노원구 동일로 1343 301호 (상계동, 동일프라자)"
"서울특별시", "상계맑은내과의원", "02-930-7616", "서울특별시 노원구 동일로 1366 삼봉빌딩 5층 (상계동)"
"서울특별시", "새하늘이비인후과의원", "951-9518", "서울특별시 노원구 동일로 1548 (상계동)"
"서울특별시", "나래마취통증의학과의원", "02-935-9093", "서울특별시 노원구 동일로 1549 302호 (상계동, 양성빌딩)"
"서울특별시", "비타민가정의원", "02-951-8279", "서울특별시 노원구 동일로 1551 삼전빌딩 202호 (상계동)"
"서울특별시", "미즈아이의원", "02-931-5223", "서울특별시 노원구 동일로 1553 2층 (상계동)"
"서울특별시", "송내과의원", "02-3392-2275", "서울특별시 노원구 동일로 1669 (상계동)"
"서울특별시", "김이비인후과의원", "02-934-9034", "서울특별시 노원구 동일로 1669 3층 (상계동, 삼천리수락프라자)"
"서울특별시", "미즈아이프라자산부인과의원", "02-931-5224", "서울특별시 노원구 동일로 1669 수락프라자 (상계동)"
"서울특별시", "바른이비인후과의원", "02-976-2400", "서울특별시 노원구 동일로203가길 29 260~262호 (중계동, 브라운스톤중계)"
"서울특별시", "중계튼튼의원", "02-973-0173", "서울특별시 노원구 동일로207길 18 206호 (중계동, 중계그린아파트 B상가)"
"서울특별시", "이가정의학과의원", "02-932-5312", "서울특별시 노원구 동일로227길 86 2층 (상계동, 상록아파트상가)"
"서울특별시", "현대가정의학과의원", "937-2636", "서울특별시 노원구 동일로237나길 1 1층 (상계동)"
"서울특별시", "노원백정형외과의원", "02-930-0222", "서울특별시 노원구 동일로243길 33 2.3.6층 (상계동)"
"서울특별시", "은빛가정의원", "02-936-6985", "서울특별시 노원구 동일로245가길 41 205호 (상계동)"
"서울특별시", "조가정의학과의원", "02-978-2440", "서울특별시 노원구 마들로 111 (월계동, 삼호나상가 211호)"
"서울특별시", "권내과의원", "02-972-8375", "서울특별시 노원구 마들로 111 나동 205호, 206호 (월계동, 삼호종합상가)"
"서울특별시", "맑고밝은이비인후과의원", "02-975-3308", "서울특별시 노원구 마들로 31 204호 (월계동, 그랑빌@제주상가동)"
"서울특별시", "상계가정의원", "934-8375", "서울특별시 노원구 상계로 306 (상계동)"
"서울특별시", "제민통합내과정형외과의원", "02-936-6390", "서울특별시 노원구 상계로 63-7 청우빌딩 (상계동)"
"서울특별시", "성문의원", "02-919-7075", "서울특별시 노원구 석계로 9 (월계동)"
"서울특별시", "연세키즈소아청소년과의원", "973-3455", "서울특별시 노원구 섬밭로 134 (공릉동)"
"서울특별시", "정가정의학과의원", "02-933-3475", "서울특별시 노원구 수락산로 232 (상계동)"
"서울특별시", "서울의원", "02-993-2161", "서울특별시 노원구 월계로 370 희성프라자 201,202호 (월계동)"
"서울특별시", "파티마의원", "02-933-0081", "서울특별시 노원구 중계로 160 화인상가아파트 (중계동)"
"서울특별시", "한마음가정의원", "02-907-4002", "서울특별시 노원구 초안산로5길 12 월계프라자 (월계동)"
"서울특별시", "중계우리들의원", "02-931-8270", "서울특별시 노원구 한글비석로 235 하나프라자빌딩 401호,402호,403호 (중계동)"
"서울특별시", "중계윌내과의원", "02-933-8255", "서울특별시 노원구 한글비석로 253 세신프라자빌딩 401호, 402호, 405호 (중계동)"
"서울특별시", "유진상내과의원", "02-930-8433", "서울특별시 노원구 한글비석로 269 301호 (중계동, 마들프라자)"
"서울특별시", "서울연합의원", "02-933-3810", "서울특별시 노원구 한글비석로 410 예공빌딩 2층 전체호 (상계동)"
"서울특별시", "유정의원", "02-937-0119", "서울특별시 노원구 한글비석로 416 2,3층 (상계동, 상계의원)"
"서울특별시", "365열린내과의원", "02-976-3658", "서울특별시 노원구 한글비석로 77 3층 (하계동)"
"서울특별시", "홍성환산부인과의원", "02-972-1800", "서울특별시 노원구 화랑로 455 1층 (공릉동)"
"서울특별시", "정소아청소년과의원", "02-948-4552", "서울특별시 노원구 화랑로51길 78 2층 (공릉동, 비선아파트상가)"
"서울특별시", "은내과의원", "02-932-1974", "서울특별시 도봉구 노해로 389 203호 (창동, 제일빌딩)"
"서울특별시", "강소아과의원", "02-906-1606", "서울특별시 도봉구 덕릉로 253 (창동)"
"서울특별시", "김현소아청소년과의원", "02-955-5225", "서울특별시 도봉구 도당로13길 15 2층 (방학동)"
"서울특별시", "참편한정형외과의원", "02-6925-3977", "서울특별시 도봉구 도봉로 461 4층 (쌍문동, 우림빌딩)"
"서울특별시", "훼밀리마취통증의학과의원", "02-900-8275", "서울특별시 도봉구 도봉로 476 202호 (창동, 삼성쉐르빌페스티)"
"서울특별시", "이영수의원", "02-992-6353", "서울특별시 도봉구 도봉로 477 (쌍문동)"
"서울특별시", "서울항맥외과의원", "02-997-0700", "서울특별시 도봉구 도봉로 488 6층 (창동, 대명빌딩)"
"서울특별시", "건강제일의원", "02-903-0099", "서울특별시 도봉구 도봉로 499 2호 (쌍문동)"
"서울특별시", "성모휴정신건강의학과의원", "02-949-1966", "서울특별시 도봉구 도봉로 551 (쌍문동)"
"서울특별시", "삼성나비뇨의학과의원", "02-955-3077", "서울특별시 도봉구 도봉로 551 경덕빌딩 4층 (쌍문동)"
"서울특별시", "한얼통증의학과의원", "02-900-8872", "서울특별시 도봉구 도봉로 575 3층 306호 (쌍문동, 삼환프라자)"
"서울특별시", "항상쾌한외과의원", "02-2234-1004", "서울특별시 도봉구 도봉로 677 7층층 (방학동)"
"서울특별시", "다사랑신경외과의원", "02-930-1961", "서울특별시 도봉구 도봉로 677 우리들메디빌딩 2층 203호 (방학동)"
"서울특별시", "한사랑의원", "02-956-7545", "서울특별시 도봉구 도봉로 887 (도봉동)"
"서울특별시", "성모가정의학과의원", "02-904-9045", "서울특별시 도봉구 마들로 555 209호 (창동, 쌍용아파트)"
"서울특별시", "동부한일외과의원", "02-3492-4754", "서울특별시 도봉구 마들로 686 2,3,4층 (도봉동)"
"서울특별시", "나비석내과의원", "02-956-7533", "서울특별시 도봉구 마들로 859-19 206호 (도봉동, 한신아파트 근린상가)"
"서울특별시", "동동가정의학과의원", "02-956-0415", "서울특별시 도봉구 방학로 167 4층 (방학동)"
"서울특별시", "유덕기내과의원", "02-956-9831", "서울특별시 도봉구 방학로 183 3층 (방학동, 거구빌딩)"
"서울특별시", "한걸음가정의학과의원", "02-996-9110", "서울특별시 도봉구 삼양로 580-4 2층 (쌍문동, 노스블릭)"
"서울특별시", "신동아의원", "02-954-1857", "서울특별시 도봉구 시루봉로 105 신동아상가 203,204호 (방학동)"
"서울특별시", "바로바로의원", "02-956-8808", "서울특별시 도봉구 시루봉로 290 (도봉동, 1~3층)"
"서울특별시", "정다운가정의학과의원", "997-7545", "서울특별시 도봉구 해등로16길 26 (창동, 타임프라자)"
"서울특별시", "미래의원", "02-929-3200", "서울특별시 동대문구 왕산로 20 3층 (신설동)"
"서울특별시", "더원외과의원", "02-967-7575", "서울특별시 동대문구 왕산로32길 7 5층 (용두동, BYC 청량리 오피스텔)"
"서울특별시", "허성욱내과의원", "02-2249-5525", "서울특별시 동대문구 장한로 119 301호 (장안동)"
"서울특별시", "동인내과의원", "02-2245-0875", "서울특별시 동대문구 천호대로 307 4,5층 (답십리동)"
"서울특별시", "행복한가정의학과의원", "02-2245-3100", "서울특별시 동대문구 한천로 242 2층 (전농동)"
"서울특별시", "연세신통마취통증의학과의원", "02-963-3375", "서울특별시 동대문구 홍릉로 19 3층 (청량리동)"
"서울특별시", "백신의원", "02-581-0164", "서울특별시 동작구 동작대로 7 3층 (사당동, 산광빌딩)"
"서울특별시", "예일의원", "02-582-6977", "서울특별시 동작구 동작대로 89 401호 (사당동, 골든시네마타워)"
"서울특별시", "남성의원", "02-599-1412", "서울특별시 동작구 사당로 215 301호 (사당동, 서림빌딩)"
"서울특별시", "사당현대의원", "02-599-3851", "서울특별시 동작구 사당로23바길 9 204,205,206,207호 (사당동, 동작삼성레미안아파트상가)"
"서울특별시", "연세재활의학과의원", "02-823-6782", "서울특별시 동작구 상도로 103 (상도동)"
"서울특별시", "늘건강내과이비인후과의원", "02-822-3375", "서울특별시 동작구 상도로 174 2,3층 (상도동)"
"서울특별시", "강호경내과의원", "02-825-6657", "서울특별시 동작구 상도로 348 2층 (상도동)"
"서울특별시", "에코이비인후과의원", "02-814-8899", "서울특별시 동작구 상도로 356 2층 (상도동)"
"서울특별시", "삼성의원", "816-3352", "서울특별시 동작구 상도로 356 3,4층 (상도동)"
"서울특별시", "서내과의원", "02-815-0168", "서울특별시 동작구 서달로 150 203호 (흑석동, 이랜드해가든)"
"서울특별시", "제일의원", "02-815-0179", "서울특별시 동작구 양녕로 195 (상도동)"
"서울특별시", "엘림이비인후과의원", "02-822-5075", "서울특별시 동작구 여의대방로 142 보라매빌딩 5층 (대방동)"
"서울특별시", "송가정의학과의원", "02-817-1655", "서울특별시 동작구 여의대방로44길 47 210층 (대방동, 주공아파트상가)"
"서울특별시", "푸른정형외과의원", "02-824-7582", "서울특별시 동작구 장승배기로 168 드림타워 2층 201~202호 (노량진동)"
"서울특별시", "연세유내과의원", "02-701-5131", "서울특별시 마포구 도화길 32 201호 (도화동, 삼성아파트상가동)"
"서울특별시", "양대원내과의원", "02-703-8543", "서울특별시 마포구 도화길 32 303호, 304호 (도화동, 삼성아파트상가동)"
"서울특별시", "우리미래의원", "02-392-7505", "서울특별시 마포구 마포대로24길 4 공덕자이아파트 상가 304~305호 (아현동)"
"서울특별시", "우리동네30분의원", "　", "서울특별시 마포구 백범로 99 승행빌딩 4층 (대흥동)"
"서울특별시", "신촌재활의학과의원", "02-3142-8275", "서울특별시 마포구 서강로 133 신촌병우빌딩 2층 일부호 (노고산동)"
"서울특별시", "한빛가정의원", "02-363-8000", "서울특별시 마포구 신촌로34길 37 2층 (아현동)"
"서울특별시", "서울본내과의원", "02-3143-2220", "서울특별시 마포구 양화로 133 서교타워 3,5,18층 (서교동)"
"서울특별시", "마포의료복지사회적협동조합 무지개의원", "02-326-0611", "서울특별시 마포구 월드컵로 80 7층 (서교동, 아침뜨락빌딩)"
"서울특별시", "더건강내과의원", "02-338-8275", "서울특별시 마포구 월드컵로13길 34 3층 (망원동, 두드림빌딩)"
"서울특별시", "연희제일의원", "02-336-5361", "서울특별시 서대문구 연희로 108 1층 (연희동)"
"서울특별시", "미즈앤미여성의원", "02-303-6399", "서울특별시 서대문구 응암로 55 (북가좌동)"
"서울특별시", "연세가정의원", "02-392-6122", "서울특별시 서대문구 이화여대8길 62 (북아현동)"
"서울특별시", "장진호내과의원", "02-391-6336", "서울특별시 서대문구 홍은중앙로3길 9 상가동 지하1층 201,202호 (홍은동, 북한산 두산 위브)"
"서울특별시", "레그웰의원", "031-716-5288", "서울특별시 서초구 강남대로 589 멀버리힐스  401호 (잠원동)"
"서울특별시", "서초아가페의원", "02-591-3056", "서울특별시 서초구 고무래로 90-7 406호 (서초동, 서초쇼핑)"
"서울특별시", "정가정의원", "02-575-8608", "서울특별시 서초구 남부순환로 2614 305호 (양재동, 한솔로이젠트)"
"서울특별시", "세란외과의원", "02-3463-5658", "서울특별시 서초구 남부순환로 2632 양재빌딩 301호 (양재동)"
"서울특별시", "헤론연세의원", "02-591-7582", "서울특별시 서초구 동광로1길 112 203,204,205호 (방배동, 롯데캐슬헤론상가)"
"서울특별시", "이성윤의원", "02-577-1256", "서울특별시 서초구 바우뫼로7길 8 502호 (우면동, 우면종합상가)"
"서울특별시", "송피부과의원", "02-588-6686", "서울특별시 서초구 방배로 115 4층 (방배동, 방배빌딩)"
"서울특별시", "가야성모의원", "532-2345", "서울특별시 서초구 방배로 175 4층 (방배동, 동성빌딩)"
"서울특별시", "표나실정형외과의원", "02-525-7582", "서울특별시 서초구 방배천로 158 3~5층 (방배동, 동천빌딩)"
"서울특별시", "한일의원", "02-523-7505", "서울특별시 서초구 방배천로 5-3 (방배동)"
"서울특별시", "서이드림내과의원", "02-2135-6601", "서울특별시 서초구 사임당로 157 4층 408.409호 (서초동)"
"서울특별시", "샘신경정신과의원", "3443-0075", "서울특별시 서초구 사평대로55길 8 3층 (반포동, 신영빌딩)"
"서울특별시", "삼성마취통증의학과의원", "02-3483-2119", "서울특별시 서초구 서초대로 3-4 304호 (방배동, 방배디오슈페리움1)"
"서울특별시", "태비뇨기과의원", "02-3486-0002", "서울특별시 서초구 서초대로77길 3 1208호 (서초동, 아라타워)"
"서울특별시", "정내과의원", "02-532-4794", "서울특별시 서초구 서초중앙로 230 303호 (반포동, 반포프라자빌딩)"
"서울특별시", "강남연세재활의학과의원", "02-3478-0216", "서울특별시 서초구 서초중앙로 230 동화반포프라자 5층 501, 504, 505호 (반포동)"
"서울특별시", "연세본안과의원", "02-3473-2061", "서울특별시 서초구 서초중앙로 36 2층 (서초동, 준영빌딩)"
"서울특별시", "구현남안과의원", "02-595-0138", "서울특별시 서초구 서초중앙로24길 27 2층 1호 (서초동, G-five CENTRAL PLAZA)"
"서울특별시", "김영진성형외과의원", "02-548-2662", "서울특별시 서초구 서초중앙로24길 27 G5센트럴프라자 205호, 207호 (서초동)"
"서울특별시", "연세탑의원", "593-8181", "서울특별시 서초구 신반포로 157 1동 3층 (잠원동, 반포쇼핑상가)"
"서울특별시", "연세강내과의원", "3482-0875", "서울특별시 서초구 신반포로 177 3동 3층 (잠원동, 반포쇼핑상가)"
"서울특별시", "반포신경외과의원", "02-533-1788", "서울특별시 서초구 신반포로 189 4동 2층 9~21, 39~45호 (잠원동, 반포종합상가)"
"서울특별시", "모인호내과의원", "02-532-6518", "서울특별시 서초구 신반포로 205 6동 401호 (잠원동, 반포쇼핑타운)"
"서울특별시", "연세의원", "595-9828", "서울특별시 서초구 잠원로 148 206호 (잠원동, 잠원연합상가)"
"서울특별시", "이나영내과의원", "02-594-0987", "서울특별시 서초구 잠원로 24 (반포동)"
"서울특별시", "고운소아청소년과의원", "537-0391", "서울특별시 서초구 잠원로 24 반포자이플라자 303호 (반포동)"
"서울특별시", "히포크라타의원", "02-591-9970", "서울특별시 서초구 잠원로4길 33-2 잠원동 스타빌딩 4층 401호 (잠원동)"
"서울특별시", "오현숙내과의원", "02-523-5588", "서울특별시 서초구 효령로 229 2층 (서초동, 서울빌딩)"
"서울특별시", "서초베스트외과의원", "02-587-8575", "서울특별시 서초구 효령로 237 202호 (서초동, 서초한신리빙타워)"
"서울특별시", "김일중내과의원", "02-3473-1356", "서울특별시 서초구 효령로 396 15호 (서초동)"
"서울특별시", "성수성모내과의원", "02-467-6788", "서울특별시 성동구 뚝섬로 388 2층 (성수동2가)"
"서울특별시", "성수한사랑의원", "02-2205-0896", "서울특별시 성동구 성덕정길 33 (성수동1가)"
"서울특별시", "성수의원", "02-468-7908", "서울특별시 성동구 성수일로 39 (성수동1가)"
"서울특별시", "고선용산부인과의원", "02-2292-4411", "서울특별시 성동구 왕십리로 309 407호 (행당동, 왕십리역이스타빌 )"
"서울특별시", "서울중앙의원", "02-497-9095", "서울특별시 성동구 왕십리로5길 3 성수1가제2동 공공복합청사 2층 (성수동1가)"
"서울특별시", "닥터홍가정의학과의원", "02-333-8842", "서울특별시 성동구 한림말1길 16 2층 (옥수동)"
"서울특별시", "김명선내과의원", "02-747-7582", "서울특별시 성북구 동소문로 18 지상2층 (동소문동2가)"
"서울특별시", "우리의원", "02-942-6800", "서울특별시 성북구 서경로 27 예닮빌딩 2층 (정릉동)"
"서울특별시", "서울가정의학과의원", "02-953-8575", "서울특별시 성북구 종암로27길 13 302호 (종암동, 도원프라자)"
"서울특별시", "연세메디칼내과의원", "02-423-6001", "서울특별시 송파구 가락로 166 (송파동, 2층)"
"서울특별시", "베스트의원", "02-449-3599", "서울특별시 송파구 마천로 281 1층 (마천동)"
"서울특별시", "마천우리신경과의원", "02-430-1020", "서울특별시 송파구 마천로41길 5 자매빌딩 201호,202호 (마천동)"
"서울특별시", "중앙내과의원", "02-408-3914", "서울특별시 송파구 마천로57길 5 마천빌딩 4층 (마천동)"
"서울특별시", "성림내과의원", "02-420-3308", "서울특별시 송파구 백제고분로 276 (석촌동, 공익빌딩 203호)"
"서울특별시", "열린성모이비인후과의원", "02-6413-1004", "서울특별시 송파구 백제고분로 466 (방이동, 세나빌딩 2층)"
"서울특별시", "송파베스트내과의원", "", "서울특별시 송파구 법원로 128 문정에스케이브이원지엘메트로시티 C동 2층 208~210호 (문정동)"
"서울특별시", "연세가정의학과의원", "02-400-7450", "서울특별시 송파구 새말로 136 201호 (문정동, 대명빌딩)"
"서울특별시", "가락성모의원", "02-403-5586", "서울특별시 송파구 송파대로 284 205호 (가락동, 소석빌딩)"
"서울특별시", "송파우리들의원", "02-448-8275", "서울특별시 송파구 송파대로 345 2037호,2038호 (가락동, 헬리오시티)"
"서울특별시", "호수내과의원", "02-422-4566", "서울특별시 송파구 송파대로 438 녹십초빌딩 2,3층 (송파동)"
"서울특별시", "가락한솔의원", "02-6978-3456", "서울특별시 송파구 양재대로 932 관리업무동 5층 505호 (가락동, 가락동 농수산물도매시장)"
"서울특별시", "준앤민닥터포유의원", "02-423-7575", "서울특별시 송파구 양재대로 932 업무동 5층 8,9,10,10-2호 (가락동)"
"서울특별시", "하나의원", "02-404-9879", "서울특별시 송파구 오금로 506 (거여동, 3층)"
"서울특별시", "봄날내과의원", "02-6015-2222", "서울특별시 송파구 오금로32길 35 (송파동)"
"서울특별시", "풍성내과의원", "02-488-1004", "서울특별시 송파구 올림픽로45길 19 풍성빌딩 2층,3층 (풍납동)"
"서울특별시", "위례선가정의학과의원", "02-431-8250", "서울특별시 송파구 위례광장로 199 성희프라자 4층 404~405호 (장지동)"
"서울특별시", "푸른소아청소년과의원", "02-429-4800", "서울특별시 송파구 충민로2길 28 대진프라자 304호 (장지동)"
"서울특별시", "서영탁내과의원", "02-6346-6163", "서울특별시 양천구 등촌로 188 지하1층 제B01호, 제1층 제101호 (목동)"
"서울특별시", "삼성탑가정의학과의원", "02-753-8579", "서울특별시 양천구 목동동로8길 23 메리트윈 3층 301호 (신정동)"
"서울특별시", "함춘내과의원", "02-2646-6318", "서울특별시 양천구 목동서로 37 201호 (목동, 하이베라스)"
"서울특별시", "가족사랑의원", "02-2649-2119", "서울특별시 양천구 목동중앙본로 40 (목동)"
"서울특별시", "푸른의원", "02-2685-7588", "서울특별시 양천구 신정로11길 54 (신정동)"
"서울특별시", "박석규내과의원", "02-938-1700", "서울특별시 영등포구 도림로 144 88월드타워 A동 5층 508~509호 (대림동)"
"서울특별시", "라파엘여성의원", "02-847-8112", "서울특별시 영등포구 도신로 87 2층 (도림동)"
"서울특별시", "연세가정의학과의원", "02-834-9826", "서울특별시 영등포구 영등포로64길 8 201호 (신길동, 우성상가)"
"서울특별시", "선의원", "02-842-5655", "서울특별시 영등포구 영신로 9 2층 (영등포동)"
"서울특별시", "신경란의원", "02-795-3495", "서울특별시 용산구 우사단로 2-1 2층 (보광동)"
"서울특별시", "조승복의원", "02-707-0022", "서울특별시 용산구 원효로 155 (원효로2가)"
"서울특별시", "이태원정형외과의원", "02-797-7272", "서울특별시 용산구 이태원로 186 4~5층 (이태원동)"
"서울특별시", "홈스피탈내과의원", "02-796-7566", "서울특별시 용산구 한남대로 76 한남프라자 5층 (한남동)"
"서울특별시", "허내과의원", "02-792-5575", "서울특별시 용산구 회나무로13길 5 (이태원동, 혜천상가)"
"서울특별시", "불광연세가정의학과의원", "02-356-8807", "서울특별시 은평구 불광로 8 (대조동)"
"서울특별시", "살림의료복지사회적협동조합살림의원", "02-6014-9949", "서울특별시 은평구 서오릉로 149 2층 좌측호 (구산동, 세웅그룹빌딩)"
"서울특별시", "라임비뇨기과의원", "02-356-1476", "서울특별시 은평구 은평로 121 6층 (응암동)"
"서울특별시", "은평희망찬안과의원", "02-352-0090", "서울특별시 은평구 은평로 121 응암CO메디칼빌딩 7층 (응암동)"
"서울특별시", "연세사랑의원", "02-375-7585", "서울특별시 은평구 응암로22길 28-6 3층 (응암동)"
"서울특별시", "서울엔도내과의원", "02-305-8575", "서울특별시 은평구 응암로4길 25-1 3층 (응암동, 거성빌딩)"
"서울특별시", "연세가정의원", "02-306-8112", "서울특별시 은평구 증산로3길 6 2층 (증산동, 비자림빌딩)"
"서울특별시", "정승기정형외과의원", "02-358-2458", "서울특별시 은평구 통일로 710 (불광동)"
"서울특별시", "불광탑재활의학과의원", "02-357-0216", "서울특별시 은평구 통일로 730 보광빌딩 5층 (불광동)"
"서울특별시", "마리앤라인의원", "02-718-8000", "서울특별시 종로구 대학로 130 5층 (동숭동)"
"서울특별시", "연세메트로비뇨기과의원", "02-738-9115", "서울특별시 종로구 새문안로 89 905호 (신문로1가, 용마빌딩)"
"서울특별시", "서울36의원", "02-3210-3634", "서울특별시 종로구 새문안로5가길 11 옥빌딩 501호 (내수동)"
"서울특별시", "혜화가정의원", "02-744-3832", "서울특별시 종로구 성균관로 34 혜화가정의원 2층 (명륜1가)"
"서울특별시", "이성호가정의학과의원", "02-921-2500", "서울특별시 종로구 숭인동길 21 가동 201호 (숭인동,청계현대힐스테이트 상가)"
"서울특별시", "서울듀크의원", "02-737-7900", "서울특별시 종로구 율곡로 47 3층 (안국동, 걸스카웃회관)"
"서울특별시", "연세우리소아과의원", "02-732-5275", "서울특별시 종로구 자하문로7길 73 2~3층 (누하동)"
"서울특별시", "금비뇨기과의원", "", "서울특별시 종로구 종로 33 그랑서울 205호(일부),206호 (청진동)"
"서울특별시", "연세신도의원", "02-2234-5004", "서울특별시 종로구 종로 374 2층 (숭인동)"
"서울특별시", "정가정의원", "02-762-7511", "서울특별시 종로구 종로51나길 2 2층 (창신동)"
"서울특별시", "송달옥비뇨기과의원", "02-734-8874", "서울특별시 종로구 종로7길 47 3층 (공평동)"
"서울특별시", "평화가정의원", "02-3216-3250", "서울특별시 종로구 진흥로 432 2층 201호 (구기동)"
"서울특별시", "우리의원", "02-741-7750", "서울특별시 종로구 창신길 47 2층 (창신동)"
"서울특별시", "김내과의원", "02-435-9171", "서울특별시 중랑구 겸재로 185 (면목동)"
"서울특별시", "홍이내과의원", "02-6952-1209", "서울특별시 중랑구 겸재로 237 3층 (망우동)"
"서울특별시", "소망연합의원", "02-496-0567", "서울특별시 중랑구 겸재로9길 53 (면목동)"
"서울특별시", "덕제내과의원", "02-972-7878", "서울특별시 중랑구 공릉로 59 2층 (묵동)"
"서울특별시", "서울내과의원", "02-976-7550", "서울특별시 중랑구 공릉로2길 8-4 2층 203~206호 (묵동, 칼튼테라스)"
"서울특별시", "김영준내과의원", "02-973-2811", "서울특별시 중랑구 동일로 865 2층 (묵동, 김영준내과의원)"
"서울특별시", "연세참신한내과의원", "", "서울특별시 중랑구 동일로 905 창성빌딩 3층 (묵동)"
"서울특별시", "동부중앙의원", "02-973-5888", "서울특별시 중랑구 동일로 909 동부중앙의원 (묵동)"
"서울특별시", "신우내과의원", "02-491-0768", "서울특별시 중랑구 망우로 377 성환빌딩 2,4층 (상봉동)"
"서울특별시", "성모 척편한 신경외과의원", "02-2208-2119", "서울특별시 중랑구 면목로 305 2층 (면목동, 성일빌딩)"
"서울특별시", "대한민국의원", "02-436-0111", "서울특별시 중랑구 면목로 352 (면목동)"
"서울특별시", "미래신경과의원", "02-438-7582", "서울특별시 중랑구 면목로 415 3층 (면목동)"
"서울특별시", "이상윤의원", "02-437-6632", "서울특별시 중랑구 봉우재로 40 (면목동)"
"서울특별시", "참좋은의원", "02-432-2041", "서울특별시 중랑구 봉화산로 301 511동 103~104호 (망우동, 신내역 힐데스하임 참좋은아파트)"
"서울특별시", "신내우리의원", "02-435-2277", "서울특별시 중랑구 신내로 50-3 3층 (신내동, 선일빌딩)"
"서울특별시", "박철호 내과의원", "02-2208-1977", "서울특별시 중랑구 용마산로 502 4층 (망우동, 영창빌딩)"
"서울특별시", "서울신내의원", "02-3422-1911", "서울특별시 중랑구 용마산로 622 (신내동)"
"서울특별시", "주정형외과의원", "02-437-7581", "서울특별시 중랑구 중랑역로 90 대원메디컬빌딩 (중화동)"
"서울특별시", "신누가의원", "02-434-5281", "서울특별시 중랑구 중랑역로15길 6 (중화동, 신누가의원)"
"경기도", "한마음의원", "02-6052-1120", "경기도 고양시 덕양구 권율대로 896-15, 2층 (신원동)"
"경기도", "심욱섭소아과의원", "031-963-1823", "경기도 고양시 덕양구 마상로154번길 68, 2층 (성사동)"
"경기도", "행신연세가정의학과의원", "031-979-7200", "경기도 고양시 덕양구 무원로54번길 62, (행신동)"
"경기도", "연세가족사랑의원", "031-819-7575", "경기도 고양시 덕양구 백양로 71, 202호 (화정동, 삼라마이다스빌)"
"경기도", "연세영림의원", "031-971-8575", "경기도 고양시 덕양구 서정마을로 5, 2층 (행신동, 행신프라자)"
"경기도", "세란가정의원", "031-972-0543", "경기도 고양시 덕양구 충경로 96, 소만빌딩 301호 (행신동)"
"경기도", "연세신일의원", "031-966-0206", "경기도 고양시 덕양구 호국로 788, 2층 (성사동)"
"경기도", "고양메디컬의원", "031-819-7500", "경기도 고양시 일산동구 고봉로 795, 2층 (설문동)"
"경기도", "연세삼육오매일의원", "031-977-3657", "경기도 고양시 일산동구 성석로 30, 2층 (중산동)"
"경기도", "에스의원", "031-924-6177", "경기도 고양시 일산동구 숲속마을1로 71, 샘터17 6층 604~605호 (풍동)"
"경기도", "세란의원", "031-904-3263", "경기도 고양시 일산동구 장백로 172, (장항동, 금강프라자301,304호)"
"경기도", "미래이비인후과의원", "031-911-6105", "경기도 고양시 일산서구 중앙로 1574, 402호 (대화동, 월드프라자)"
"경기도", "누가가정의학과의원", "031-918-8121", "경기도 고양시 일산서구 탄중로 518, (일산동)"
"경기도", "상쾌한이비인후과의원", "02-502-7200", "경기도 과천시 별양상가1로 30, (별양동, 골든타워 202호)"
"경기도", "연세더블유재활의학과의원", "02-6081-9800", "경기도 광명시 광명로 906, 현대아이타워 501호 (광명동)"
"경기도", "벗이비인후과의원", "02-898-5800", "경기도 광명시 금하로 464, 메이저리치안 2층 201호, 4층 401-404호 (소하동)"
"경기도", "예의원", "02-2625-7588", "경기도 광명시 도덕공원로 21, 2,3층 (철산동)"
"경기도", "정소아과의원", "809-6990", "경기도 광명시 안현로 19, 상가동 2층 204호 (하안동, 하안주공1단지)"
"경기도", "서울휴내과이비인후과의원", "031-8027-2222", "경기도 광주시 초월읍 경충대로 1083, SM플라자 3층"
"경기도", "고려정성가정의학과의원", "031-797-9540", "경기도 광주시 초월읍 경충대로 926, 926"
"경기도", "성모우리내과의원", "031-797-0200", "경기도 광주시 퇴촌면 광동로 33, (퇴촌면)"
"경기도", "로하스한울의원", "031-797-9114", "경기도 광주시 퇴촌면 천진암로 968-6, (퇴촌면)"
"경기도", "푸른내과의원", "031-768-8074", "경기도 광주시 파발로 187, (탄벌동)"
"경기도", "느티나무의료복지사회적협동조합 느티나무의원", "031-555-8005", "경기도 구리시 건원대로 36, (인창동, 화성골드프라자)"
"경기도", "예스연세의원", "031-595-8648", "경기도 구리시 이문안로 101, 2층 1호 (수택동)"
"경기도", "김포장문외과의원", "031-986-9082", "경기도 김포시 김포대로 859, 601호 (사우동, 하나메디칼센터)"
"경기도", "솔터가정의원", "031-989-5351", "경기도 김포시 김포한강8로 331, 2층 (마산동, 김포한강엘에이치솔터마을2단지 상가동1)"
"경기도", "조은미래의원", "031-992-6677", "경기도 김포시 김포한강8로 396, 지오타워 4층 404호 (구래동)"
"경기도", "노상준가정의원", "031-984-3014", "경기도 김포시 봉화로181번길 31-20, (감정동)"
"경기도", "다산수내과의원", "031-553-5455", "경기도 남양주시 다산중앙로123번길 13, 3층 (다산동)"
"경기도", "열린메디칼의원", "031-567-0975", "경기도 남양주시 미금로 37-6, 202호 (도농동, 연성프라자)"
"경기도", "별내참사랑의원", "031-528-0175", "경기도 남양주시 별내3로 318, 301호 (별내동, 리츠프라자 Ⅱ)"
"경기도", "참의원", "031-591-4102", "경기도 남양주시 사릉로 14, 303호 (금곡동, 금곡프라자)"
"경기도", "늘푸른의원", "031-577-3826", "경기도 남양주시 와부읍 덕소로 270, 204,205,207호 (한강우성상가)"
"경기도", "서울홈케어의원", "031-575-7270", "경기도 남양주시 진접읍 금강로 1524, 3층"
"경기도", "고려엔도홍내과의원", "031-571-7100", "경기도 남양주시 진접읍 해밀예당3로 57, 3층"
"경기도", "한사랑의원", "031-572-8335", "경기도 남양주시 퇴계원면 경춘북로558번길 2, (퇴계원읍)"
"경기도", "21세기조훈의원", "031-522-4096", "경기도 남양주시 퇴계원읍 퇴계원로 67-1, 201호"
"경기도", "김마취통증의학과의원", "031-594-8375", "경기도 남양주시 평내로29번길 49, 301호 (평내동, 엠투프라자)"
"경기도", "강의원", "031-511-7512", "경기도 남양주시 화도읍 묵현로 15, (화도읍)"
"경기도", "중동비뇨기과의원", "032-215-1114", "경기도 부천시 길주로 307, 로얄프라자 308호 (중동)"
"경기도", "맘편한정신건강의학과의원", "032-710-7585", "경기도 부천시 부일로 293, 4층, 5층 (상동, 엘티타워)"
"경기도", "도당삼성의원", "032-678-8119", "경기도 부천시 삼작로 287, 2층 (도당동)"
"경기도", "미래신경과의원", "032-664-9944", "경기도 부천시 송내대로 38, 4,5층 (송내동)"
"경기도", "이용준내과의원", "032-671-8261", "경기도 부천시 역곡로 480, (고강동)"
"경기도", "김서영의원", "032-611-1766", "경기도 부천시 원미로144번길 11, 101호,102호 일부 (원미동, 이안더부천)"
"경기도", "부천의료복지사회적협동조합부천시민의원", "032-675-7517", "경기도 부천시 원미로97번길 31, 2층 일부호 (원미동)"
"경기도", "한사랑가정의원", "032-676-6548", "경기도 부천시 지양로158번길 5, (고강동)"
"경기도", "로하스림의원", "031-719-5047", "경기도 성남시 분당구 구미로116번길 5, 4,5층 (구미동, 수빌딩)"
"경기도", "보경내과의원", "031-712-1872", "경기도 성남시 분당구 내정로 170, 308호 (수내동, 동신파크빌딩)"
"경기도", "리지안안과의원", "031-719-7582", "경기도 성남시 분당구 돌마로 68, 211호 3층일부호 (구미동, 분당프라자)"
"경기도", "연세가정의학과의원", "031-711-4568", "경기도 성남시 분당구 돌마로356번길 3, 317호 (수내동, 그랜드프라자)"
"경기도", "이세환마취통증의학과의원", "031-726-1275", "경기도 성남시 분당구 미금로 43, 4층 (구미동)"
"경기도", "토우의원", "031-714-9993", "경기도 성남시 분당구 불곡로 4, 107-1호 (정자동, 리더스프라자)"
"경기도", "노숙영앤유신경과의원", "031-703-5558", "경기도 성남시 분당구 서현로210번길 20, 403호 (서현동, 코코프라자)"
"경기도", "로아신경과의원", "031-718-6700", "경기도 성남시 분당구 성남대로 168, 304호 (금곡동, 미도프라자)"
"경기도", "연세제이의원", "031-714-1091", "경기도 성남시 분당구 성남대로 168, 309,310호 (금곡동, 미도프라자)"
"경기도", "분당미소가인피부과의원", "031-622-1500", "경기도 성남시 분당구 야탑로81번길 10, 211~212호 (야탑동, 분당아미고타워)"
"경기도", "탑내과의원", "031-628-7788", "경기도 성남시 분당구 판교로255번길 9-22, 105,106호 (삼평동)"
"경기도", "집으로의원", "031-698-3304", "경기도 성남시 분당구 효자길 19, 1층 (서현동)"
"경기도", "새한베스트의원", "031-734-1382", "경기도 성남시 수정구 공원로 322, 205호 (신흥동, 신동아파라디움)"
"경기도", "참내과의원", "031-742-7809", "경기도 성남시 수정구 산성대로 331, 2층 202, 205호 (신흥동, 한신프라자)"
"경기도", "연세생명나무내과의원", "031-758-1088", "경기도 성남시 수정구 위례광장로 27, 303,304호 (창곡동, 으뜸프라자)"
"경기도", "두리이비인후과의원", "031-722-3777", "경기도 성남시 수정구 위례동로 141, 우성메디피아 305호 일부 (창곡동)"
"경기도", "초이스의원", "031-722-0333", "경기도 성남시 수정구 창업로 17, F동 304호 (시흥동)"
"경기도", "함께하는정신건강의학과의원", "031-735-3975", "경기도 성남시 중원구 광명로 313, 이화빌딩 3층 (금광동)"
"경기도", "신구의원", "031-745-5678", "경기도 성남시 중원구 광명로 336, 3층 (금광동)"
"경기도", "우리집의원", "031-735-5066", "경기도 성남시 중원구 금상로 60, 2,3층 (상대원동, 우림빌딩)"
"경기도", "미소드림의원", "031-745-8575", "경기도 성남시 중원구 산성대로 352, 6층 (중앙동)"
"경기도", "이승주내과의원", "031-742-8522", "경기도 성남시 중원구 산성대로372번길 9, 원광빌딩 3,4층 (금광동)"
"경기도", "현대중앙의원", "031-746-5584", "경기도 성남시 중원구 은이로 8, (은행동)"
"경기도", "행복한우리동네의원", "031-217-6336", "경기도 수원시 권선구 경수대로 373, (권선동)"
"경기도", "서울가정의학과의원", "031-416-1275", "경기도 수원시 권선구 당진로31번길 15, (당수동)"
"경기도", "입북삼성가정의학과의원", "031-295-6370", "경기도 수원시 권선구 율전로 2, 입북프라자 1층 104호 (입북동)"
"경기도", "홈닥터예방의학과의원", "070-4801-6679", "경기도 수원시 영통구 광교중앙로 232, 드림타워4 301호 (하동)"
"경기도", "고려웰가정의학과의원", "031-217-8871", "경기도 수원시 영통구 대학로 109, 301호, 302호 (이의동)"
"경기도", "헬레나의원", "031-204-5948", "경기도 수원시 영통구 영통로 103, (망포동, 뉴엘지프라자 201-2호)"
"경기도", "신영통삼성내과의원", "031-273-0012", "경기도 수원시 영통구 영통로 136, 센트럴타워 401호 (망포동)"
"경기도", "명성의원", "031-255-5900", "경기도 수원시 장안구  장안로125번길 3, (정자동)"
"경기도", "365스마트의원", "031-268-7234", "경기도 수원시 장안구 만석로19번길 25-10, (천천동, 롯데마트)"
"경기도", "혜성마취통증의학과의원", "031-243-3336", "경기도 수원시 장안구 장안로 264-14, (정자동)"
"경기도", "김인호내과의원", "031-251-2188", "경기도 수원시 장안구 장안로 270-12, (정자동)"
"경기도", "김도관외과의원", "031-245-4628", "경기도 수원시 장안구 파장로 89, (정자동)"
"경기도", "사)대한결핵협회경기도지부부설복십자의원", "031-245-8671", "경기도 수원시 팔달구 효원로 18, (매산로3가)"
"경기도", "연세바른의원", "031-312-9481", "경기도 시흥시 시흥대로 1121, 신천휴먼시아 상가조합 4층전체, 2층 204일부호 (신천동)"
"경기도", "시흥희망의료복지 사회적협동조합 희망의원", "031-315-2580", "경기도 시흥시 은행로167번길 6, 401호, 402(일부)호 (대야동, 청송빌딩)"
"경기도", "온내과의원", "031-484-2636", "경기도 안산시 단원구 고잔1길 16, 501호 (고잔동, 중앙아케이트빌딩)"
"경기도", "고잔이비인후과의원", "031-411-5075", "경기도 안산시 단원구 광덕동로 55, 303,304호 (고잔동, 21세기프라자)"
"경기도", "제중의원", "031-494-3898", "경기도 안산시 단원구 라성안길 1, 204호 (원곡동, 삼우상가)"
"경기도", "윤이비인후과의원", "031-401-4172", "경기도 안산시 단원구 예술대학로 9, 307호 (고잔동, 보배플라자)"
"경기도", "김비뇨기과의원", "031-484-1991", "경기도 안산시 단원구 예술대학로 9, 308호 (고잔동, 보배프라자)"
"경기도", "연세의원", "031-487-9191", "경기도 안산시 단원구 중앙대로 915, 516~517호 (고잔동, 월드코아빌딩)"
"경기도", "삼성드림의원", "031-403-8575", "경기도 안산시 단원구 화정천동로4길 24, (와동, 진목공)"
"경기도", "연세가정의학과의원", "031-437-1110", "경기도 안산시 상록구 건건1길 38, (건건동, 2층)"
"경기도", "본오제일의원", "031-415-7572", "경기도 안산시 상록구 본이로 53, 2층 (본오동)"
"경기도", "정가정의원", "031-409-8248", "경기도 안산시 상록구 샘골로 143, 2층 (본오동, 청원빌딩)"
"경기도", "안산의료복지사회적협동조합새안산상록의원", "031-401-7577", "경기도 안산시 상록구 석호로 292, 2층 (본오동)"
"경기도", "안산의료복지사회적협동조합 새안산의원", "031-405-8333", "경기도 안산시 상록구 예술광장로 31, 파크프라자 604~609호 (월피동)"
"경기도", "팔곡연세의원", "031-437-8781", "경기도 안산시 상록구 정동1길 2, 1층 (팔곡일동)"
"경기도", "안산무지개연합의원", "031-405-9011", "경기도 안산시 상록구 항가울로 410, (성포동, 롯데마트)"
"경기도", "안성의료복지사회적협동조합서안성의원", "031-651-6121", "경기도 안성시 공도읍 승두길 40, (공도읍)"
"경기도", "안성의료복지사회적협동조합우리동네의원", "031-671-9157", "경기도 안성시 대학로 69, (당왕동)"
"경기도", "안성의료복지사회적협동조합안성농민의원", "031-675-0227", "경기도 안성시 중앙로371번길 13, 2,3층 (석정동)"
"경기도", "미래연세의원", "464-7701", "경기도 안양시 만안구 안양천서로 177, 지하1층 (안양동, 래미안안양메가트리아)"
"경기도", "안양세종의원", "031-472-9391", "경기도 안양시 만안구 충훈로 83, (석수동)"
"경기도", "지제의원", "031-772-1761", "경기도 양평군 지평면 지평의병로 113-1, (지평면)"
"경기도", "북내우리들의료생활협동조합우리들의원", "031-882-2219", "경기도 여주시 북내면 여양2로 264, (북내면)"
"경기도", "참가정의원", "031-284-7582", "경기도 용인시 기흥구 금화로 101, 2층 202,203호 (상갈동, 그린빌프라자)"
"경기도", "가정이편한가정의학과의원", "031-284-0775", "경기도 용인시 기흥구 덕영대로2077번길 16, 302호 (영덕동, 기흥대정프라자)"
"경기도", "고려외과의원", "031-693-5501", "경기도 용인시 기흥구 동백중앙로 283, 골드프라자 A동 404~406호 (중동)"
"경기도", "우리들가정의학과의원", "031-275-3210", "경기도 용인시 기흥구 새천년로 18, 301호 (신갈동, 스카이프라자)"
"경기도", "우리가정의학과 의원", "031-304-8275", "경기도 용인시 기흥구 중부대로788번길 22, 2층 3.4호 (상하동, 쌍용아파트주상가동)"
"경기도", "우리들내과의원", "031-266-5430", "경기도 용인시 수지구 상현로 34, 성진프라자 202호,203호 (상현동)"
"경기도", "수지본내과의원", "031-261-6888", "경기도 용인시 수지구 신봉1로 175, 402호 (신봉동, 진성프라자)"
"경기도", "제일가정의원", "031-264-0218", "경기도 용인시 수지구 용구대로2771번길 66, 상가동 1층 106호 (죽전동, 벽산2단지아파트)"
"경기도", "용한외과의원", "031-261-7188", "경기도 용인시 수지구 풍덕천로 149, 5층 505,506,509호 (풍덕천동, 현대그린프라자)"
"경기도", "은내과의원", "031-263-5480", "경기도 용인시 수지구 풍덕천로 155, 2층 203호 (풍덕천동, 동보아파트에이상가동)"
"경기도", "아름다움의원", "031-333-3339", "경기도 용인시 처인구 금령로 86, 시네마일번가 10층 (김량장동)"
"경기도", "유림명문의원", "031-338-2911", "경기도 용인시 처인구 백옥대로 1392, 2층 (유방동, 홍제빌딩)"
"경기도", "OK의원", "031-212-2171", "경기도 용인시 처인구 양지면 남평로 234, 4층"
"경기도", "서울홈케어내과의원", "031-454-0727", "경기도 의왕시 사천2길 16, 필스전자(주)사옥 4층 (왕곡동)"
"경기도", "제일의원", "031-427-7575", "경기도 의왕시 원골로 3, 3층 (오전동, 주원빌딩)"
"경기도", "서울이비인후과의원", "031-826-2007", "경기도 의정부시 동일로454번길 6, 213호 (신곡동, 풍림아파트상가)"
"경기도", "하늘가정의학과의원", "031-852-4264", "경기도 의정부시 송양로 29, 2층 203호 (낙양동)"
"경기도", "편한자리의원", "031-852-1233", "경기도 의정부시 장곡로 626, 금오종합상가 A동 6층 601~603, 606~610호 (신곡동)"
"경기도", "서강의원", "031-842-9111", "경기도 의정부시 추동로 9, 휴먼시티 3층 302호 (신곡동)"
"경기도", "미소아청소년과의원", "031-945-2400", "경기도 파주시 가람로116번길 57, 301호 일부호 (와동동, 중앙타워)"
"경기도", "센트럴제일안과의원", "031-978-8275", "경기도 파주시 경의로 1092, 401호,406호~408호, 501호 (야당동)"
"경기도", "서울성모의원", "031-947-5275", "경기도 파주시 숲속노을로 275, 503,504,505,506호 (문발동, 진원빌딩)"
"경기도", "박소아청소년과의원", "031-944-6970", "경기도 파주시 시청로 209, 2층 (아동동, 호수빌딩)"
"경기도", "라임비뇨기과의원", "031-957-4212", "경기도 파주시 와석순환로 125, 303,304호 (동패동, 현대프라자)"
"경기도", "가온삼성가정의학과의원", "031-945-0050", "경기도 파주시 와석순환로 431, 302호 (와동동, 신운정프라자 )"
"경기도", "이수동소아청소년과의원", "031-957-1869", "경기도 파주시 책향기로 439, 301,302호 (동패동, 책향기마을10단지동문굿모닝힐상가동)"
"경기도", "교하제일의원", "031-957-7113", "경기도 파주시 청석로 260, 5층 (동패동, 트리플메디칼타워)"
"경기도", "한결나은가정의학과의원", "031-944-2940", "경기도 파주시 해올1길 7, 503호, 504호 (다율동)"
"경기도", "연세송내과의원", "031-8070-1198", "경기도 파주시 후곡로 3, 2층 203호, 3층 304호 (금촌동)"
"경기도", "연세가정의원", "031-668-6231", "경기도 평택시 관광특구로 37, 3층 (서정동)"
"경기도", "안중밝은안과의원", "031-684-0067", "경기도 평택시 안중읍 안현로 300, 안중 메디컬타워"
"경기도", "비전튼튼연합의원", "031-618-6620", "경기도 평택시 중앙로 96, 201호 (합정동)"
"경기도", "서울푸른의원", "031-683-1570", "경기도 평택시 청북읍 신포길 47, (청북읍)"
"경기도", "한사랑의원", "031-532-8275", "경기도 포천시 영북면 운천안길 30, (영북면)"
"경기도", "포천신경외과의원", "031-535-8802", "경기도 포천시 중앙로 73, (신읍동)"
"경기도", "인덕외과의원", "792-3080", "경기도 하남시 신평로 44, 2층 (신장동)"
"경기도", "하남이비인후과의원", "791-2818", "경기도 하남시 신평로 49, 3층 (신장동)"
"경기도", "화성의료복지사회적협동조합 모두의원", "031-353-2675", "경기도 화성시 향남읍 행정중앙2로 63-34, 명신프라자2 301,302호"
"경기도", "정가정의학과의원", "031-232-7123", "경기도 화성시 효행로1156번길 14, 201호 (병점동)"
"인천광역시", "강소아청소년과의원", "032-542-2639", "인천광역시 계양구 경명대로1114번길 21, (계산동)"
"인천광역시", "하나정형외과의원", "032-542-5111", "인천광역시 계양구 계양대로 102, 하나빌딩 2,3층 (작전동)"
"인천광역시", "한빛의원", "032-548-0033", "인천광역시 계양구 계양대로 53, 3층 (작전동, 휘림빌딩)"
"인천광역시", "조치항외과의원", "032-362-7575", "인천광역시 계양구 계양대로 55, 7층 (작전동, 민재빌딩)"
"인천광역시", "두리산부인과두리내과의원", "032-545-7030", "인천광역시 계양구 계양대로 83, 2층 (작전동)"
"인천광역시", "한가람메디즈의원", "032-721-7512", "인천광역시 계양구 새벌로 112, 마스터즈 2층 206~209호 (효성동)"
"인천광역시", "닥터봉정민내과의원", "032-719-7797", "인천광역시 계양구 장제로 714, 세종팰리스 2~3층 204호 205호, 301호 (작전동)"
"인천광역시", "성모가정의학과의원", "032-511-9940", "인천광역시 계양구 황어로 120, (장기동)"
"인천광역시", "바로나은정형외과의원", "442-8575", "인천광역시 남동구 논고개로 73, 5층 전체호 (논현동, 라움타워)"
"인천광역시", "주손척척의원", "032-464-6979", "인천광역시 남동구 논현역로 4, 이지프라자 2층 일부호, 5층 일부호 (논현동)"
"인천광역시", "연세나오미의원", "423-9100", "인천광역시 남동구 백범로 338-1, 지하1,지상1~5층 전체호 (간석동)"
"인천광역시", "장수찬신경외과의원", "032-424-3114", "인천광역시 남동구 성말로13번길 15, 302호,308호 (구월동, 메인프라자)"
"인천광역시", "기분좋은신경과의원", "032-816-7575", "인천광역시 남동구 인하로 501, 202호 (구월동)"
"인천광역시", "예촌연합의원", "462-8275", "인천광역시 남동구 인하로 608, 5층 (구월동, 구월메디컬프라자)"
"인천광역시", "논현신경과의원", "438-8275", "인천광역시 남동구 청능대로 581, 401호 (논현동, 광성프라자)"
"인천광역시", "연세소래메디칼의원", "437-7585", "인천광역시 남동구 포구로 75, 2,3,4층 (논현동, 송원빌딩)"
"인천광역시", "현대성모의원", "032-863-7700", "인천광역시 미추홀구 매소홀로 442, (학익동)"
"인천광역시", "인천평화의료복지사회적협동조합평화의원", "032-524-6911", "인천광역시 부평구 경인로1104번길 15, 1층 (일신동)"
"인천광역시", "우리가정의학과의원", "032-529-8275", "인천광역시 부평구 마장로 387, 청원빌딩 2층 (산곡동)"
"인천광역시", "신현대의원", "032-528-7427", "인천광역시 부평구 마장로 86, 2층 (십정동)"
"인천광역시", "조경준의원", "032-513-4546", "인천광역시 부평구 시장로 55-1, 2층 1호 (부평동)"
"인천광역시", "산곡정형외과의원", "032-267-5600", "인천광역시 부평구 원적로 290, 2층 (산곡동, 산곡메디칼센타)"
"인천광역시", "안용진내과의원", "032-562-1430", "인천광역시 서구 완정로 187, 2,5,6층 (왕길동)"
"인천광역시", "아스클레페이온 의원", "", "인천광역시 서구 청라한내로72번길 7-25, 리버사이드크루즈몰 801호 (청라동)"
"인천광역시", "연세정형외과의원", "032-834-7000", "인천광역시 연수구 비류대로 194, (옥련동)"
"인천광역시", "이상영가정의학과의원", "032-819-3636", "인천광역시 연수구 비류대로 437, 2층 (연수동, 청보빌딩)"
"인천광역시", "서울정형외과의원", "032-821-7600", "인천광역시 연수구 비류대로433번길 3, (연수동)"
"인천광역시", "삼성스마일의원", "032-833-4976", "인천광역시 연수구 앵고개로104번길 4, 준빌딩 4층 402호 (동춘동)"
"인천광역시", "현대성모의원", "032-816-1367", "인천광역시 연수구 함박뫼로 28, (청학동)"
"세종특별자치시", "소리숨이비인후과의원", "044-868-1177", "세종특별자치시 나성로 96, 더센트럴 421호 (나성동)"
"세종특별자치시", "세종다사랑가정의학과의원", "044-863-7523", "세종특별자치시 도움3로 105-7, 401호 (종촌동, 메디케어)"
"세종특별자치시", "제일연합내과의원", "044-715-5501", "세종특별자치시 새롬중앙로 62-15, 401호,402(일부)호 (새롬동, 해피라움W)"
"세종특별자치시", "전의의원", "044-863-2828", "세종특별자치시 전의면 읍내길 13, 13"
"세종특별자치시", "다솜가정의학과의원", "044-865-0075", "세종특별자치시 조치원읍 도원1로 16, (푸르지오 상가 208. 209호)"
"세종특별자치시", "장동석내과의원", "044-868-8841", "세종특별자치시 조치원읍 새내로 122, 메가박스 3층 306,307,308,309,310,311,312호"
"세종특별자치시", "문내과의원", "044-867-6551", "세종특별자치시 조치원읍 조치원로 22, 22"
"경상남도", "노의원", "055-322-0550", "경상남도 김해시 가락로 13, (부원동)"
"경상남도", "장연합의원", "055-334-5295", "경상남도 김해시 가락로 39, 2층 (부원동)"
"경상남도", "평선의료소비자생활협동조합 김해사랑의원", "055-325-3238", "경상남도 김해시 가락로29번길 4, (부원동)"
"경상남도", "우리신경외과의원", "055-332-0076", "경상남도 김해시 구산로 31, 1,2층 (구산동, 성일빌딩)"
"경상남도", "신가정의학과의원", "055-334-0522", "경상남도 김해시 금관대로1193번길 12, (외동)"
"경상남도", "으뜸내과의원", "055-724-0511", "경상남도 김해시 삼계중앙로 36, 4,5층 (삼계동)"
"경상남도", "문지윤내과의원", "055-723-3155", "경상남도 김해시 삼계중앙로 40, 2~4층 (삼계동)"
"경상남도", "보강연합의원", "055-331-8288", "경상남도 김해시 월산로 111-43, (부곡동, 드림피아상가)"
"경상남도", "김민성내과의원", "055-313-1088", "경상남도 김해시 장유로 262, 3층 (부곡동, 삼봉빌딩)"
"경상남도", "삼성의원", "055-342-0005", "경상남도 김해시 진영읍 진영로 186, 1층"
"경상남도", "송광호의원", "055-351-0367", "경상남도 밀양시 삼랑진읍 천태로 13-1, 1층"
"경상남도", "신등하나의원", "055-974-0417", "경상남도 산청군 신등면 신차로 509, (신등면)"
"경상남도", "연세 빛 가정의학과 의원", "055-382-7119", "경상남도 양산시 물금읍 증산역로 152, 401, 501호"
"경상남도", "웅상이내과의원", "055-384-6575", "경상남도 양산시 소주회야1길 13, 남양상가 203,204,205호 (소주동)"
"경상남도", "대곡중앙의원", "055-743-8876", "경상남도 진주시 대곡면 진의로 1075, (대곡면)"
"경상남도", "조은세상의원", "055-275-7300", "경상남도 창원시 성산구 대암로 272, (대방동, 대방2차덕산타운)"
"경상남도", "봉의원", "055-288-0181", "경상남도 창원시 의창구 창이대로 201, (봉곡동)"
"경상남도", "조준형내과의원", "055-546-1588", "경상남도 창원시 진해구 진해대로776번길 28, 진해농협종합회관(하나로마트) B동 201호 (석동)"
"경상남도", "성모의원", "055-644-7722", "경상남도 통영시 새터길 15, (도천동)"
"경상북도", "곰돌이연합소아청소년과의원", "053-818-7755", "경상북도 경산시 경안로 202, 3층 (중방동)"
"경상북도", "사과나무소아청소년과의원", "053-854-7575", "경상북도 경산시 압량읍 압독3로 15, 303호"
"경상북도", "소망의원", "053-856-7580", "경상북도 경산시 진량읍 황제1길 86-31, 202호 (아파트상가)"
"경상북도", "경주숲속생명의원", "054-753-7888", "경상북도 경주시 산내면 수의길 78, (경주숲속휴양의원)"
"경상북도", "안강아산내과의원", "054-761-0675", "경상북도 경주시 안강읍 구부랑길 67-3, a동 2층 201/202호 (한신상가)"
"경상북도", "준이비인후과의원", "054-763-1140", "경상북도 경주시 안강읍 안강시장길 15, 2, 3층"
"경상북도", "용인내과의원", "054-775-1075", "경상북도 경주시 원화로 257, (황오동)"
"경상북도", "스마일의원", "070-7576-0222", "경상북도 경주시 현곡면 용담로 181, 3층 301호"
"경상북도", "조은의원", "054-456-5588", "경상북도 구미시 문장로 74-1, (도량동)"
"경상북도", "황가정의학과의원", "054-454-0122", "경상북도 구미시 형곡중앙로 34, (형곡동)"
"경상북도", "굿모닝연합신경과통증의학과의원", "054-842-7582", "경상북도 안동시 경동로 559, 1층 (당북동)"
"경상북도", "안동제통마취통증의학과의원", "054-855-5052", "경상북도 안동시 경동로 649, (남문동)"
"경상북도", "용상황금연합의원", "054-822-7500", "경상북도 안동시 경동로 847, 1층 (용상동)"
"경상북도", "안동제일안과의원", "054-855-7582", "경상북도 안동시 대안로 107, 2층 (대석동)"
"경상북도", "김대영비뇨기과의원", "054-859-3595", "경상북도 안동시 퇴계로 81, 2층 (목성동)"
"경상북도", "강구성모의원", "054-733-9345", "경상북도 영덕군 강구면 강구대게2길 11-1, (강구면)"
"경상북도", "영덕파티마마취통증의학과의원", "054-734-6575", "경상북도 영덕군 영덕읍 덕곡길 91, (영덕읍)"
"경상북도", "제일의원", "054-652-2989", "경상북도 예천군 예천읍 효자로 106, (예천읍)"
"경상북도", "제일외과의원", "054-832-7585", "경상북도 의성군 금성면 탑리길 15, 1층"
"경상북도", "서울마취통증의학과의원", "054-861-5952", "경상북도 의성군 다인면 다인장길 9-1, (다인면)"
"경상북도", "동명의원", "054-976-7585", "경상북도 칠곡군 동명면 금암중앙길 48, (동명면)"
"경상북도", "영남외과의원", "054-975-2567", "경상북도 칠곡군 약목면 약목로5길 3, (약목면)"
"경상북도", "황수경유외과의원", "054-252-4655", "경상북도 포항시 남구 희망대로 797, (대도동)"
"경상북도", "기계의원", "054-246-6867", "경상북도 포항시 북구 기계면 기계로 48, (기계면)"
"경상북도", "포항베리굿의원", "054-275-9105", "경상북도 포항시 북구 중흥로 297, 2층 (죽도동)"
"경상북도", "꿈의의원", "054-248-2473", "경상북도 포항시 북구 창흥로 13, 2층 (창포동)"
"전라남도", "연세의원", "061-799-3800", "전라남도 광양시 백운로 1638-11, 1층 (금호동)"
"전라남도", "공산의원", "061-335-7475", "전라남도 나주시 공산면 공산로 102, (공산면)"
"전라남도", "한국흉부외과의원", "061-334-7688", "전라남도 나주시 공산면 공산로 124-9, (공산면)"
"전라남도", "봉황가정의학과의원", "061-331-1160", "전라남도 나주시 봉황면 봉황로 759, (봉황면)"
"전라남도", "새신성의원", "061-337-7524", "전라남도 나주시 봉황면 봉황로 767, (봉황면)"
"전라남도", "이준외과의원", "061-333-3330", "전라남도 나주시 영산3길 32-16, (영산동)"
"전라남도", "우림신경외과의원", "061-272-3737", "전라남도 목포시 영산로 333, (용당동)"
"전라남도", "김태우신경과의원", "061-279-5500", "전라남도 목포시 영산로 515, 2층 (상동)"
"전라남도", "무안연합의원", "061-453-9944", "전라남도 무안군 무안읍 동문안길 56-1, (무안읍)"
"전라남도", "남악온누리내과의원", "061-281-3651", "전라남도 무안군 삼향읍 후광대로 242, 2, 3층 (전남개발빌딩)"
"전라남도", "현대의원", "061-857-6200", "전라남도 보성군 벌교읍 채동선로 215-1, (벌교읍)"
"전라남도", "순천동강의원", "061-754-8275", "전라남도 순천시 고지1길 4, 2층 (가곡동)"
"전라남도", "위앤장서내과의원", "061-724-4600", "전라남도 순천시 대석길 31, 2,3,4층 (연향동)"
"전라남도", "열린의원", "061-721-7535", "전라남도 순천시 비봉2길 7, (조례동)"
"전라남도", "하나비뇨기과의원", "061-722-8575", "전라남도 순천시 순광로 14, 드림내과 5층 (조례동)"
"전라남도", "명성의원", "061-754-6294", "전라남도 순천시 승주읍 승주로 706, (승주읍)"
"전라남도", "누가의원", "061-725-1535", "전라남도 순천시 연향1로 55, (연향동)"
"전라남도", "샘연합의원", "061-744-7707", "전라남도 순천시 팔마로 48, (인제동)"
"전라남도", "다정의원", "061-725-7988", "전라남도 순천시 해룡면 장선배기길 284, 청솔아파트1치동 206호"
"전라남도", "서울의원", "061-275-7650", "전라남도 신안군 지도읍 봉리길 16-3, (지도읍)"
"전라남도", "복음내과의원", "061-351-0124", "전라남도 영광군 영광읍 옥당로 155, (영광읍)"
"전라남도", "독천한국의원", "061-471-7576", "전라남도 영암군 미암면 영산로 11, (미암면)"
"전라남도", "시종김의원", "061-473-6655", "전라남도 영암군 시종면 쌍구길 21-1, (시종면)"
"전라남도", "참사랑의원", "061-473-2220", "전라남도 영암군 영암읍 남문로 63, (영암읍)"
"전라남도", "고금의원", "061-552-2075", "전라남도 완도군 고금면 고금동로 11, 1층"
"전라남도", "하나 연합의원", "061-552-2466", "전라남도 완도군 고금면 고금동로 30, (고금면)"
"전라남도", "금일한국의원", "061-552-7582", "전라남도 완도군 금일읍 금일로 361-1, (금일읍)"
"전라남도", "대덕미래의원", "061-867-9950", "전라남도 장흥군 대덕읍 대대로 930, (대덕읍)"
"전라남도", "기독의원", "061-323-2671", "전라남도 함평군 손불면 손불중앙길 88, (손불면)"
"전라남도", "해남기독의원", "061-533-9797", "전라남도 해남군 해남읍 해남로 8, 8"
"전라남도", "화산한국의원", "061-533-7554", "전라남도 해남군 화산면 송평로 3, (화산면)"
"전라남도", "효자의원", "061-535-0572", "전라남도 해남군 황산면 시등로 119, (황산면)"
"전라북도", "조갑호의원", "063-561-3270", "전라북도 고창군 고창읍 동리로 46, (고창읍)"
"전라북도", "강신녕가정의학과의원", "063-561-2361", "전라북도 고창군 고창읍 중앙로 206, 2층"
"전라북도", "대산연합의원", "063-563-5639", "전라북도 고창군 대산면 대성로 227, 227"
"전라북도", "제일가정의학과의원", "063-561-3302", "전라북도 고창군 대산면 대성로 238, (대산면)"
"전라북도", "건강의원", "063-563-6500", "전라북도 고창군 무장면 무장읍성길 4-3, (무장면)"
"전라북도", "서울가정의원", "063-564-6269", "전라북도 고창군 흥덕면 문화1길 5, 5"
"전라북도", "은혜의원", "063-465-9388", "전라북도 군산시 공단대로 394, 으뜸정형외과 2층 (나운동)"
"전라북도", "현대가정의학과의원", "063-442-2299", "전라북도 군산시 공항로 79, 201, 202호 (소룡동)"
"전라북도", "늘편한우리의원", "063-462-8275", "전라북도 군산시 공항로 86, 106호 (소룡동)"
"전라북도", "성가의원", "063-442-0833", "전라북도 군산시 백릉로 43, (경암동)"
"전라북도", "원탑의원", "063-443-3399", "전라북도 군산시 신영1길 5, 세라젬의료기 2층 (평화동)"
"전라북도", "비타민금구의원", "063-548-7525", "전라북도 김제시 금구면 봉두로 91, (금구면)"
"전라북도", "원평연합의원", "063-544-1355", "전라북도 김제시 금산면 원평6길 8, (금산면)"
"전라북도", "우리정형외과의원", "063-545-7000", "전라북도 김제시 동서로 246, (요촌동)"
"전라북도", "윤의원", "063-547-9900", "전라북도 김제시 두월2길 6, (신풍동)"
"전라북도", "한양의원", "063-545-0010", "전라북도 김제시 만경읍 만경로 817, (만경읍)"
"전라북도", "김제속편한내과의원", "063-545-3769", "전라북도 김제시 서낭당길 16, (요촌동)"
"전라북도", "남원내과의원", "633-7975", "전라북도 남원시 남문로 393, (왕정동)"
"전라북도", "우리가정의학과 의원", "633-9696", "전라북도 남원시 남문로 438-1, (금동)"
"전라북도", "미래연합의원", "063-636-7500", "전라북도 남원시 시청로 3, (죽항동.남원한방병원) (죽항동)"
"전라북도", "중앙가정의학과의원", "063-625-8977", "전라북도 남원시 용성로 79, (동충동)"
"전라북도", "성모의원", "063-626-2338", "전라북도 남원시 의총로 53, (금동)"
"전라북도", "무주한양내과의원", "063-324-8867", "전라북도 무주군 무주읍 한풍루로 351, 351"
"전라북도", "성모외과의원", "063-324-1342", "전라북도 무주군 설천면 무설로 1583, 1583"
"전라북도", "변산의원", "063-583-8451", "전라북도 부안군 변산면 지서로 74, 74"
"전라북도", "한사랑의원", "063-582-7534", "전라북도 부안군 진서면 곰소2길 4, 4"
"전라북도", "구림우리의원", "063-652-1260", "전라북도 순창군 구림면 연산2길 7-1, (구림면)"
"전라북도", "우리가정의원", "063-653-8875", "전라북도 순창군 복흥면 정산1길 11-2, (복흥면)"
"전라북도", "류재규내과의원", "063-653-5885", "전라북도 순창군 순창읍 순창로 225-10, 225"
"전라북도", "고산성모의원", "063-261-7511", "전라북도 완주군 고산면 읍내2길 9, (고산면)"
"전라북도", "고산가정의학과의원", "063-261-7588", "전라북도 완주군 고산면 읍내4길 8, 1층"
"전라북도", "중앙의원", "063-291-3188", "전라북도 완주군 삼례읍 동학로 24, 2층"
"전라북도", "참좋은삼례내과의원", "063-291-5650", "전라북도 완주군 삼례읍 동학로 28, (삼례읍)"
"전라북도", "현대가정의학과의원", "063-291-5465", "전라북도 완주군 삼례읍 동학로 36, (삼례읍)"
"전라북도", "소양제일의원", "063-243-4115", "전라북도 완주군 소양면 소양로 204, 204"
"전라북도", "혁신가정의학과의원", "063-228-7585", "전라북도 완주군 이서면 기지로 51, 51"
"전라북도", "에코르파밀리에의원", "063-236-8895", "전라북도 완주군 이서면 지사제로 15, 3,4층 301, 401호"
"전라북도", "오편한 의원", "063-832-2000", "전라북도 익산시 무왕로 1171, 3층 (부송동)"
"전라북도", "김성국내과의원", "063-861-7535", "전라북도 익산시 함열읍 함열로 57, 1층"
"전라북도", "우리가정의학과의원", "063-642-0975", "전라북도 임실군 오수면 삼일로 11, (오수면)"
"전라북도", "박승민내과의원", "063-351-1616", "전라북도 장수군 장수읍 장천로 180, (장수읍)"
"전라북도", "엘림정신건강의학과의원", "276-7575", "전라북도 전주시 덕진구 기린대로 358, (금암동, 영진빌딩)"
"전라북도", "덕진재활의학과의원", "063-253-5040", "전라북도 전주시 덕진구 기린대로 481, 401호 (덕진동1가)"
"전라북도", "아중내과의원", "063-241-8575", "전라북도 전주시 덕진구 무삼지로 72, (인후동1가)"
"전라북도", "건지이비인후과의원", "063-242-4600", "전라북도 전주시 덕진구 소리로 192, 2층 (호성동1가)"
"전라북도", "속좋은내과의원", "063-255-1345", "전라북도 전주시 덕진구 솔내로 184, 3층 301호 (송천동2가)"
"전라북도", "현비뇨기과의원", "063-252-5999", "전라북도 전주시 덕진구 송천3길 2, (송천동1가)"
"전라북도", "모래내피부과의원", "063-253-2225", "전라북도 전주시 덕진구 안덕원로 204, 모래내피부과 3, 4층 (인후동1가)"
"전라북도", "이덕수내과의원", "063-241-7582", "전라북도 전주시 덕진구 정언신로 89, (인후동1가)"
"전라북도", "장인수가정의학과의원", "063-214-7582", "전라북도 전주시 덕진구 쪽구름로 120, (반월동)"
"전라북도", "휴마취통증의학과의원", "063-252-7500", "전라북도 전주시 덕진구 태진로 125-30, (금암동, 휴엔하임주상복합아파트)"
"전라북도", "복정형외과의원", "063-241-0900", "전라북도 전주시 덕진구 편운로 6, 2층 (동산동)"
"전라북도", "서울수의원", "063-285-9977", "전라북도 전주시 덕진구 호성3길 22-2, 2층 (호성동1가, 금만빌딩)"
"전라북도", "장하림의원", "063-236-7975", "전라북도 전주시 완산구 거마평로 146, 1층 및 거마평로 148, 1층 일부호 (효자동1가)"
"전라북도", "삼성가정의학과의원", "063-285-6001", "전라북도 전주시 완산구 난전들로 266, (삼천동1가)"
"전라북도", "연세조은의원", "063-224-7588", "전라북도 전주시 완산구 문학대4길 28, 1층 (효자동3가)"
"전라북도", "온누리연합내과의원", "063-236-9600", "전라북도 전주시 완산구 백제대로 54, (삼천동1가)"
"전라북도", "박용현내과의원", "063-251-7582", "전라북도 전주시 완산구 서신로 107, 2층 (서신동)"
"전라북도", "이준학마취통증의학과의원", "063-236-8888", "전라북도 전주시 완산구 서원로 350, (중화산동1가)"
"전라북도", "호남누가내과의원", "063-228-5358", "전라북도 전주시 완산구 용리로 42-1, (삼천동1가)"
"전라북도", "누가외과연합의원", "063-286-2717", "전라북도 전주시 완산구 장승배기로 268, (평화동1가)"
"전라북도", "예수가정의학과의원", "063-231-7772", "전라북도 전주시 완산구 전주천동로 142, (전동3가)"
"전라북도", "효천연합내과의원", "063-714-4522", "전라북도 전주시 완산구 천잠로 164, 송민빌딩 2층 (효자동2가)"
"전라북도", "임기영성형외과의원", "063-283-2453", "전라북도 전주시 완산구 충경로 10, (다가동3가)"
"전라북도", "김종구내과의원", "063-288-5874", "전라북도 전주시 완산구 팔달로 101-4, (전동)"
"전라북도", "이승렬가정의학과의원", "063-231-1112", "전라북도 전주시 완산구 풍남문4길 3, (전동3가)"
"전라북도", "이상권가정의학과의원", "063-224-7542", "전라북도 전주시 완산구 효자천변2길 14, 상산타운 2층 201호 (효자동1가)"
"전라북도", "다나은가정의학과의원", "063-282-7772", "전라북도 전주시 완산구 흑석로 42, 2~3층 (서서학동)"
"전라북도", "열린내과의원", "063-532-5222", "전라북도 정읍시 남북로 34, 2층 (수성동)"
"전라북도", "동하가정의학과의원", "063-538-8900", "전라북도 정읍시 벚꽃로 380, (시기동)"
"전라북도", "대성의원", "063-532-5533", "전라북도 정읍시 우암로 3-1, (시기동)"
"전라북도", "서경락가정의학과의원", "063-533-2225", "전라북도 정읍시 천변로 234, (시기동)"
"전라북도", "삼광의원", "063-531-1202", "전라북도 정읍시 칠보면 칠보중앙로 77-6, (칠보면)"
"전라북도", "마령가정의학과의원", "063-433-2524", "전라북도 진안군 마령면 서평로 187, (마령면)"
"전라북도", "송외과의원", "063-433-4188", "전라북도 진안군 진안읍 시장2길 8, (진안읍)"
"전라북도", "구세의원", "063-433-2620", "전라북도 진안군 진안읍 우화산길 10, (진안읍)"
"전라북도", "김홍기가정의학과의원", "063-433-2341", "전라북도 진안군 진안읍 중앙로 88, (진안읍)"
"충청남도", "금산365의원", "041-754-9365", "충청남도 금산군 금산읍 후곤천길 73, (D&S 프라자 2층)"
"충청남도", "김현장외과의원", "041-734-5544", "충청남도 논산시 해월로 178, (반월동)"
"충청남도", "성모연합의원", "041-352-8275", "충청남도 당진시 석문면 석문방조제로 2210, (석문면)"
"충청남도", "한양마취통증의학과의원", "041-935-5536", "충청남도 보령시 대천로 26, (대천동)"
"충청남도", "중앙의원", "041-833-7580", "충청남도 부여군 은산면 충의로 682, 1~2층"
"충청남도", "힘센마디의원", "041-665-9885", "충청남도 서산시 율지11로 11, 4층 (동문동)"
"충청남도", "태성의원", "041-427-1500", "충청남도 아산시 송악면 송악로 814, 1층"
"충청남도", "덕산의원", "041-337-5748", "충청남도 예산군 덕산면 덕산온천로 433, (덕산면)"
"충청남도", "김병기정형외과의원", "041-551-3882", "충청남도 천안시 동남구 고재20길 1, (원성동, 김병기정형외과)"
"충청남도", "속편한내과의원", "041-551-6368", "충청남도 천안시 동남구 만남로 64, 3층 302호 (신부동)"
"충청남도", "서울성심의원", "041-553-1565", "충청남도 천안시 동남구 목천읍 삼성5길 19, 2,3층"
"충청남도", "서울더블유내과의원", "041-415-0053", "충청남도 천안시 동남구 목천읍 충절로 935-5, 2,3층"
"충청남도", "수비뇨의학과의원", "041-574-3200", "충청남도 천안시 동남구 서부대로 276, 학산프라자 4층 (신방동)"
"충청남도", "문병탁의원", "041-563-7582", "충청남도 천안시 동남구 중앙로 68, 1층 (오룡동)"
"충청남도", "예소담의원", "041-564-7582", "충청남도 천안시 서북구 불당4로 53, 2층 (불당동)"
"충청남도", "성환서울의원", "041-581-4276", "충청남도 천안시 서북구 성환읍 성환중앙로 37, (성환읍)"
"충청남도", "성심의원", "041-583-2468", "충청남도 천안시 서북구 입장면 입장로 130, 1,2층"
"충청남도", "JS메디칼내과외과정형외과의원", "041-589-7575", "충청남도 천안시 서북구 직산읍 봉주로 51, (직산읍)"
"충청남도", "백석소아청소년과의원", "041-556-1236", "충청남도 천안시 서북구 한들3로 83, 203호 (백석동)"
"충청남도", "소원의원", "041-672-7077", "충청남도 태안군 소원면 신덕길 7, (소원면)"
"충청남도", "중앙정형외과의원", "041-675-2900", "충청남도 태안군 태안읍 동문2길 3, (태안읍)"
"충청남도", "삼성연합의원", "041-642-7582", "충청남도 홍성군 광천읍 홍남로 662-2, (광천읍)"
"충청남도", "홍성의료복지사회적협동조합  우리동네의원", "041-634-3223", "충청남도 홍성군 홍동면 홍장북로 8-4, (홍동면)"
"충청북도", "장안의원", "043-832-0126", "충청북도 괴산군 괴산읍 읍내로5길 10, (괴산읍)"
"충청북도", "복음의원", "043-832-7606", "충청북도 괴산군 청천면 괴산로 1341, (청천면)"
"충청북도", "현대의원", "043-542-2720", "충청북도 보은군 마로면 관기송현로 87-1, 2층 (이발관)"
"충청북도", "한내과의원", "043-742-2271", "충청북도 영동군 영동읍 중앙로3길 5-1, (영동읍)"
"충청북도", "조은내과의원", "043-882-8880", "충청북도 음성군 대소면 오태로 98, (대소면)"
"충청북도", "진천의원", "043-533-2288", "충청북도 진천군 진천읍 중앙동로 56, (진천읍)"
"충청북도", "장사랑연합내과의원", "043-536-6900", "충청북도 진천군 진천읍 중앙북로 61, 2층"
"충청북도", "김영태신경외과의원", "043-258-0174", "충청북도 청주시 상당구 단재로 21-1, (석교동)"
"충청북도", "변우규신경과의원", "043-255-3375", "충청북도 청주시 상당구 상당로 10, 5~6층 (서운동)"
"충청북도", "서울피부과의원", "043-284-1300", "충청북도 청주시 상당구 중고개로 137, 6층 (용암동)"
"충청북도", "김명수내과의원", "043-284-5356", "충청북도 청주시 서원구 구룡산로 386, (수곡동, 김명수내과의원)"
"충청북도", "오페라연합의원", "043-274-9700", "충청북도 청주시 서원구 사직대로 132, 2~3층 (사창동)"
"충청북도", "엔젤연합내과의원", "043-214-7582", "충청북도 청주시 청원구 오창읍 중심상업로 31-4, 4층 (엔젤오메가)"
"충청북도", "(사)대한신장복지회 대신의원", "043-224-0825", "충청북도 청주시 청원구 충청대로 93, 지하1층, 지상 1, 2층 (율량동)"
"충청북도", "세종정형외과의원", "043-842-8776", "충청북도 충주시 국원대로 184, (연수동, 연수빌딩)"
"충청북도", "한길메디컬의원", "043-845-3375", "충청북도 충주시 남산로 103, 대동빌딩 2층 (용산동)"
"충청북도", "윤호배내과의원", "043-847-8866", "충청북도 충주시 성서8길 24, 1.2층 (성서동)"
"충청북도", "이화의원", "043-852-0280", "충청북도 충주시 엄정면 내창로 199-4, (엄정면)"
"충청북도", "주덕현대의원", "043-856-2211", "충청북도 충주시 주덕읍 신양로 106-1, (주덕읍)"
"충청북도", "최피부과의원", "043-848-0550", "충청북도 충주시 중앙로 67, (충의동)"
"부산광역시", "녹십자의원", "051-727-3355", "부산광역시 기장군 장안읍 해맞이로 427, ()"
"부산광역시", "(사)대한결핵협회부산광역시지부 복십자의원", "051-611-3622", "부산광역시 남구 수영로 299, (대연동)"
"부산광역시", "늘편한내과의원", "051-621-0119", "부산광역시 남구 진남로 4, 3층 (대연동)"
"부산광역시", "재단법인 대한환경보건원 좌천의원", "632-8651", "부산광역시 동구 망양로 873, (범일동)"
"부산광역시", "늘다봄의원", "051-711-1365", "부산광역시 동래구 아시아드대로 142, 사직빌딩 1동 2층 (사직동)"
"부산광역시", "삼성의원", "051-557-1331", "부산광역시 동래구 충렬대로 252, (수안동)"
"부산광역시", "개금다나아내과의원", "051-897-8575", "부산광역시 부산진구 가야대로 414, 성문학원 2층 (개금동)"
"부산광역시", "안규환신경과의원", "051-715-7474", "부산광역시 부산진구 가야대로 456, 4층 (개금동)"
"부산광역시", "연세마취통증의학과의원", "051-805-1120", "부산광역시 부산진구 가야대로 785, 4층 (부전동, 성영빌딩)"
"부산광역시", "메리놀의원", "051-896-0300", "부산광역시 부산진구 당감서로 87, (당감동)"
"부산광역시", "조성래의원", "051-818-6700", "부산광역시 부산진구 동성로 107, (전포동)"
"부산광역시", "미래피부과의원", "051-892-8575", "부산광역시 부산진구 동평로 94, 401호 (당감동, 당감메디칼센터)"
"부산광역시", "장팔팔의원", "051-714-1388", "부산광역시 부산진구 범일로 146-1, 6층 (범천동)"
"부산광역시", "서면엘레슈의원", "051-714-0060", "부산광역시 부산진구 서면문화로 8, (부전동)"
"부산광역시", "우리정내과의원", "051-895-7582", "부산광역시 부산진구 엄광로 33, 1,2층 (개금동)"
"부산광역시", "새영남내과의원", "051-819-8580", "부산광역시 부산진구 전포대로 190, (전포동)"
"부산광역시", "이신내과의원", "051-715-5501", "부산광역시 부산진구 중앙대로 808, 금정빌딩 4층,5층 (전포동)"
"부산광역시", "한마음외과의원", "051-333-6222", "부산광역시 북구 만덕1로10번길 2, 4층 (만덕동)"
"부산광역시", "서보원내과의원", "051-336-2771", "부산광역시 북구 만덕대로 80, 2층 (덕천동)"
"부산광역시", "닥터한스의원", "051-335-5177", "부산광역시 북구 백양대로 1025, (구포동)"
"부산광역시", "이석용이비인후과의원", "051-207-3131", "부산광역시 사하구 낙동대로 388, (당리동)"
"부산광역시", "다인의원", "051-714-3341", "부산광역시 사하구 다대로 279, 금천빌딩 3층 (장림동)"
"부산광역시", "올바른정형외과의원", "051-266-8830", "부산광역시 사하구 다대로 544, 진요빌딩 1층 105,106,107,108호 (다대동)"
"부산광역시", "코아이비인후과의원", "051-265-0119", "부산광역시 사하구 다대로 550, 3층 (다대동)"
"부산광역시", "건강내과의원", "051-710-7445", "부산광역시 사하구 동매로 167, 2층 (당리동)"
"부산광역시", "장림연세내과의원", "051-262-7575", "부산광역시 사하구 장림번영로 43, (장림동)"
"부산광역시", "한사랑내과의원", "051-207-8080", "부산광역시 사하구 하신중앙로 184, (신평동)"
"부산광역시", "준의원", "051-755-0920", "부산광역시 수영구 광남로 199, (광안동)"
"부산광역시", "강남의원", "051-416-4015", "부산광역시 영도구 꿈나무길 183, (영선동2가)"
"부산광역시", "건강드림가정의학과의원", "051-528-0075", "부산광역시 해운대구 선수촌로 66, 2층 일부호 (반여동)"
"부산광역시", "유정의원", "051-703-7934", "부산광역시 해운대구 송정중앙로 25, 2층 (송정동)"
"부산광역시", "건강한장내과의원", "051-543-1088", "부산광역시 해운대구 아랫반송로 17, 4~5층 (반송동)"
"부산광역시", "미소메디칼내과의원", "051-784-5675", "부산광역시 해운대구 재반로 150, 301호 (재송동, 보라스카이타운)"
"부산광역시", "고려신경외과의원", "051-532-0002", "부산광역시 해운대구 재반로 199, 3층 (반여동, 새아빌딩)"
"부산광역시", "부산제일의원", "051-782-2661", "부산광역시 해운대구 재반로 231, (반여동)"
"부산광역시", "노선화산부인과의원", "051-702-9008", "부산광역시 해운대구 좌동순환로 173, 301호 (좌동, 영풍프라자)"
"대전광역시", "민들레의료복지사회적협동조합민들레의원", "042-638-9012", "대전광역시 대덕구 계족로663번길 26, 1층 (법동)"
"대전광역시", "기린의원", "042-633-6556", "대전광역시 대덕구 계족로663번길 32, 203호 (법동, 상가)"
"대전광역시", "사)대한산업보건협회부설충남의원", "042-933-3200", "대전광역시 대덕구 대덕대로 1403, 1층 (문평동)"
"대전광역시", "나상연정형외과의원", "042-628-3599", "대전광역시 동구 동대전로 59-1, (대동)"
"대전광역시", "조성현가정의학과의원", "042-639-8275", "대전광역시 동구 동산초교로 41, 2층 201호 (홍도동, 파밀리에존상가)"
"대전광역시", "연세의원", "042-634-1870", "대전광역시 동구 우암로 328, (가양동)"
"대전광역시", "가양동서연합의원", "042-625-5055", "대전광역시 동구 흥룡로 37, 2층 (가양동)"
"대전광역시", "김봉천정형외과의원", "042-541-4330", "대전광역시 서구 계백로 1130, (가수원동)"
"대전광역시", "관저성모의원", "042-545-7575", "대전광역시 서구 관저북로 78, 202,203호 (관저동)"
"대전광역시", "그린성모의원", "042-487-7320", "대전광역시 서구 둔산로 14, 2층 (둔산동, 그린코아)"
"대전광역시", "세광의원", "042-482-6764", "대전광역시 서구 둔산북로 215, 307호 (둔산동, 가람아파트상가)"
"대전광역시", "충청외과의원", "042-472-6272", "대전광역시 서구 둔산중로 38, 3층 (둔산동, 메트로존)"
"대전광역시", "한마음의원", "042-472-5022", "대전광역시 서구 문정로 30, 3층 (탄방동)"
"대전광역시", "하늘토엠디의원", "042-483-0225", "대전광역시 서구 문정로 64, 4층 (탄방동)"
"대전광역시", "안필상내과의원", "042-527-0952", "대전광역시 서구 배재로 156, (도마동)"
"대전광역시", "하나의원", "042-584-0877", "대전광역시 서구 벌곡로 655, 1,2층 (흑석동)"
"대전광역시", "서울가정의학과의원", "042-531-9835", "대전광역시 서구 변동로 49, (변동)"
"대전광역시", "성모훼밀리의원", "042-586-7676", "대전광역시 서구 복수북로 42, 2층 (복수동)"
"대전광역시", "이기수의원", "042-486-2536", "대전광역시 서구 청사로 5, 119,120,204호 (월평동, 하나로아파트상가)"
"대전광역시", "선산부인과의원", "042-825-5566", "대전광역시 유성구 계룡로 24, (구암동, 선산부인과)"
"대전광역시", "현대의원", "042-543-5575", "대전광역시 유성구 대정로28번안길 83, (대정동)"
"대전광역시", "신원비뇨기과의원", "042-933-9776", "대전광역시 유성구 봉산로 22, (봉산동)"
"대전광역시", "대전의원", "042-826-3717", "대전광역시 유성구 송림로 20, (하기동, 송림마을@상가 104호)"
"대전광역시", "중앙훼밀리의원", "042-861-9379", "대전광역시 유성구 신성남로 49, (신성동)"
"대전광역시", "성모외과의원", "042-543-7582", "대전광역시 유성구 진잠로78번길 70, (원내동)"
"대전광역시", "현대가정의원", "042-534-1246", "대전광역시 중구 계백로 1619, 306호 (유천동, 벽산프라자)"
"대전광역시", "정태성정형외과의원", "042-271-8252", "대전광역시 중구 대종로 220, 1,2층 (석교동)"
"대전광역시", "성모정형외과마취통증의학과의원", "042-223-3375", "대전광역시 중구 동서대로 1388, 117,117-1,148-3호 (목동, 금호한사랑아파트)"
"대전광역시", "세란의원", "042-582-6480", "대전광역시 중구 문화로 172, (문화동)"
"대전광역시", "손정형외과의원", "042-255-9912", "대전광역시 중구 보문로 239, (대흥동)"
"대전광역시", "푸른의원", "042-585-8275", "대전광역시 중구 천근로 40, 2,3층 (문화동)"
"대전광역시", "사단법인대한결핵협회대전세종충남지부부설복십자의원", "042-349-9890", "대전광역시 중구 충무로 145, 대한결핵협회 (부사동)"
"대구광역시", "대구엔도내과의원", "053-263-9468", "대구광역시 남구 월배로 468, 2층 202호 (대명동, 한영유니죤빌딩)"
"대구광역시", "성모연합의원", "053-475-5888", "대구광역시 남구 이천로 24, 2층 (봉덕동)"
"대구광역시", "사단법인대한결핵협회 대구경북지부부설복십자의원", "053-474-4711", "대구광역시 남구 중앙대로 162, 대한결핵협회 (봉덕동)"
"대구광역시", "시현연합의원", "053-476-0075", "대구광역시 남구 효성중앙길 37, 상가2동 1층 2호 (봉덕동, 효성타운)"
"대구광역시", "한빛내과의원", "053-652-5151", "대구광역시 달서구 구마로 228, (송현동)"
"대구광역시", "서재외과의원", "053-585-3480", "대구광역시 달성군 다사읍 서재로 120, 1층"
"대구광역시", "무성비뇨기과의원", "053-983-4455", "대구광역시 동구 동촌로 228, 2층 (방촌동)"
"대구광역시", "동대구원내과의원", "053-944-7500", "대구광역시 동구 아양로 178, 2층 (신암동)"
"대구광역시", "신암카톨릭비뇨기과의원", "053-939-0075", "대구광역시 동구 아양로 48, (신암동)"
"대구광역시", "김가정의학과-외과의원", "053-941-3893", "대구광역시 북구 대구체육관로 51-2, (산격동)"
"대구광역시", "성지가정의학과의원", "053-952-0848", "대구광역시 북구 산격로8길 1, (산격동)"
"대구광역시", "바른의원", "053-253-8275", "대구광역시 북구 신암로 31, 3층 (칠성동1가)"
"대구광역시", "봉생외과의원", "053-565-9192", "대구광역시 서구 서대구로 181, (평리동)"
"대구광역시", "참좋은연합의원", "053-524-0075", "대구광역시 서구 평리로 243, (중리동)"
"대구광역시", "범어연합내과의원", "053-741-3535", "대구광역시 수성구 동대구로 278, BL-Medi Tower 6층 (범어동)"
"대구광역시", "장비뇨기과의원", "053-759-9800", "대구광역시 수성구 명덕로 377, 3층 (수성동1가)"
"대구광역시", "다올연합의원", "053-782-2558", "대구광역시 수성구 범안로 60, 1, 2, 5층 (범물동)"
"광주광역시", "우리동네의원", "062-452-7020", "광주광역시 광산구 무진대로211번길 28, 빛고을국민체육센터 1층 (우산동)"
"광주광역시", "아나파의원", "062-959-6675", "광주광역시 광산구 비아로 12, (비아동)"
"광주광역시", "박가정의학과의원", "062-941-0531", "광주광역시 광산구 어등대로665번길 4, 2층 (소촌동)"
"광주광역시", "정외과의원", "062-951-5676", "광주광역시 광산구 월곡산정로 81-1, (월곡동)"
"광주광역시", "첨단우덕수내과의원", "062-971-1004", "광주광역시 광산구 첨단중앙로182번길 28, 가동 2층 (쌍암동)"
"광주광역시", "연합외과의원", "062-955-7119", "광주광역시 광산구 하남대로 294, 2,3,4층 (운남동)"
"광주광역시", "리더스비뇨의학과의원", "062-654-0200", "광주광역시 남구 봉선로 2, 창신빌딩 3층 (주월동)"
"광주광역시", "이가정의학과의원", "062-675-3733", "광주광역시 남구 양림로 40, 2층 (양림동)"
"광주광역시", "다사랑의원", "062-676-7575", "광주광역시 남구 용대로 119, (봉선동)"
"광주광역시", "다나의원", "062-654-8575", "광주광역시 남구 용대로 144, (방림동)"
"광주광역시", "홍상훈신경과의원", "062-716-7396", "광주광역시 남구 용대로 208, 2층 201호 (방림동)"
"광주광역시", "허경내과의원", "062-225-3799", "광주광역시 동구 경양로 282-1, 2층 (계림동)"
"광주광역시", "김평남내과의원", "062-233-7575", "광주광역시 동구 백서로 134-1, (학동)"
"광주광역시", "조은세상누림의원", "062-222-8859", "광주광역시 동구 제봉로 197, (대인동)"
"광주광역시", "따뜻한내과의원", "062-511-3388", "광주광역시 북구 북문대로 88, 2층 202, 203, 212호 (운암동, 운암2차 남양휴튼)"
"광주광역시", "정인철가정의학과의원", "062-433-7582", "광주광역시 북구 중문로88번길 5, 1층 (우산동)"
"광주광역시", "첨단가족연합의원", "062-513-8876", "광주광역시 북구 첨단연신로 194, 상가동 2층 203호 (신용동, 한양수자인리버뷰)"
"광주광역시", "한사랑가정의학과의원", "062-266-2480", "광주광역시 북구 평교로 27-1, (문흥동)"
"광주광역시", "광주탑정형외과의원", "062-250-6006", "광주광역시 북구 필문대로 95, 1,2,3,4,6층 (풍향동)"
"광주광역시", "문내과의원", "062-364-6300", "광주광역시 서구 경열로 124, 1층 (양동)"
"광주광역시", "생기가정의학과의원", "062-383-5875", "광주광역시 서구 상무민주로 97, 2층 (쌍촌동)"
"광주광역시", "자모의원", "062-375-5554", "광주광역시 서구 쌍학로 43, 2층 (쌍촌동, 쌍촌추공아파트 상가)"
"광주광역시", "금호가정의학과의원", "062-382-3454", "광주광역시 서구 운천로32번길 25, 2층 (금호동)"
"광주광역시", "소문난내과의원", "062-654-0654", "광주광역시 서구 풍암중앙로 51, 2층 (풍암동, 호암빌딩)"
"광주광역시", "박상훈내과의원", "062-653-9119", "광주광역시 서구 화개1로 45, 204,302호 (금호동)"
"광주광역시", "상무이비인후과의원", "062-383-8012", "광주광역시 서구 화개1로 75, 2층 (금호동)"
"강원특별자치도", "홍현일내과의원", "033-648-2571", "강원특별자치도 강릉시 경강로 2110, 3층 (임당동, 동아빌딩)"
"강원특별자치도", "동해금강의원", "033-520-7220", "강원특별자치도 동해시 동해대로 5143, (효가동)"
"강원특별자치도", "신세계의원", "033-533-3652", "강원특별자치도 동해시 청운1길 64, 모던파크빌딩 301호 (나안동)"
"강원특별자치도", "우리가정의원", "033-766-1177", "강원특별자치도 원주시 나비허리길 169, 2층 (관설동)"
"강원특별자치도", "오킴스의원", "033-761-0072", "강원특별자치도 원주시 남원로 589-5, (명륜동)"
"강원특별자치도", "편안한마취통증의학과의원", "033-766-8275", "강원특별자치도 원주시 남원로 671, 4층 (명륜동)"
"강원특별자치도", "엄재동정형외과의원", "033-763-7077", "강원특별자치도 원주시 남원로534번길 10, 3층 (단구동)"
"강원특별자치도", "365열린사랑의원", "033-733-2426", "강원특별자치도 원주시 능라동길 3, 미래네크워크  301호 (무실동)"
"강원특별자치도", "송광선내과의원", "033-734-2020", "강원특별자치도 원주시 문막읍 문막시장1길 14, (문막읍)"
"강원특별자치도", "도움의원", "033-732-0279", "강원특별자치도 원주시 북원로 2634, (태장동)"
"강원특별자치도", "학교법인상지학원부설상지푸른의원", "033-741-9235", "강원특별자치도 원주시 상지대길 80, 상지대학교부속상지한방병원 (우산동)"
"강원특별자치도", "좋은 마음 정신건강의학과 의원", "033-733-6300", "강원특별자치도 원주시 서원대로 162, 601호 (단계동)"
"강원특별자치도", "소초함께의원", "033-734-7588", "강원특별자치도 원주시 소초면 송황유사길 3, 1층"
"강원특별자치도", "죠훈신경외과의원", "033-748-9111", "강원특별자치도 원주시 양지로 4, 3~5층 (반곡동)"
"강원특별자치도", "고려가정의원", "033-763-3552", "강원특별자치도 원주시 예술관길 25, (명륜동, 명륜2차아파트)"
"강원특별자치도", "창문외과의원", "033-743-4567", "강원특별자치도 원주시 이화6길 1, 3층 (단계동)"
"강원특별자치도", "강원의료복지사회적협동조합밝음의원", "033-744-7571", "강원특별자치도 원주시 중앙로 83, 3층 (중앙동)"
"강원특별자치도", "연세민내과의원", "033-733-7582", "강원특별자치도 원주시 중앙로 86, 4층 (중앙동, 세븐스타빌딩)"
"강원특별자치도", "화인가정의원", "033-735-1111", "강원특별자치도 원주시 지정면 신지정로 322-1, 303,304호"
"강원특별자치도", "늘푸른의원", "033-765-7579", "강원특별자치도 원주시 치악로 1648, 2층 (단구동)"
"강원특별자치도", "이하우신경외과의원", "033-745-3686", "강원특별자치도 원주시 치악로 1864, (봉산동)"
"강원특별자치도", "원주연세의원", "033-766-7881", "강원특별자치도 원주시 흥업면 남원로 57, 2.4층"
"강원특별자치도", "봄내사랑의원", "033-253-9510", "강원특별자치도 춘천시 모수물길 70, 2층 (소양로2가)"
"강원특별자치도", "현대연합의원", "033-243-7585", "강원특별자치도 춘천시 중앙로 136, (소양로4가)"
"강원특별자치도", "제일의원", "033-432-7413", "강원특별자치도 홍천군 남면 양덕원로 87, (남면)"
"강원특별자치도", "정성플러스의원", "033-436-2280", "강원특별자치도 홍천군 서면 한치골길 264, 대명비발디파크"
"강원특별자치도", "우리들가정의학과의원", "033-436-8277", "강원특별자치도 홍천군 홍천읍 홍천로8길 4, (홍천읍)"
"울산광역시", "이창우외과의원", "052-233-7272", "울산광역시 동구 방어진순환도로 505, (방어동)"
"울산광역시", "서생의원", "052-239-7582", "울산광역시 울주군 서생면 해맞이로 872, 2층"
"제주특별자치도", "서울탑외과의원", "064-745-7282", "제주특별자치도 제주시 1100로 3321, 다솜빌딩 301호 (노형동)"
"제주특별자치도", "아나파마취통증의학과의원", "064-745-1475", "제주특별자치도 제주시 노형로 407, 403호 (노형동, 노형타워)"
"제주특별자치도", "봉개의원", "064-721-4275", "제주특별자치도 제주시 삼봉로 327-2, B 102호 (봉개동, 봉개 미소담)"
"제주특별자치도", "노형365준의원", "064-805-0119", "제주특별자치도 제주시 수덕로 41, 2층 (노형동)"
"제주특별자치도", "용담의원", "064-711-8511", "제주특별자치도 제주시 용담로 92, 2층 (용담이동)"
"제주특별자치도", "한수풀의원", "064-796-3789", "제주특별자치도 제주시 한림읍 한림로 681, 681"
